{"type":"FeatureCollection","features":[{"type":"Feature","properties":{"id":"BR01","name":"长江大桥","category":"bridge","categoryName":"跨江桥梁","length_m":1122,"summary":"武汉长江大桥（Wuhan Yangtze River Bridge），是中国湖北省武汉市境内连接汉阳区与武昌区的过江通道，位于长江水道之上，是中华人民共和国成立后修建的第一座公铁两用的长江大桥，也是武汉市重要的历史标志性建筑之一，素有“万里长江第一桥”美誉。 [1]武汉长江大桥于1955年9月1日动工兴建；于1957年7月1日完成主桥合龙工程；于1957年1"},"geometry":{"type":"LineString","coordinates":[[114.27799,30.55478],[114.28787,30.54936]]}},{"type":"Feature","properties":{"id":"BR02","name":"鹦鹉洲长江大桥","category":"bridge","categoryName":"跨江桥梁","length_m":1930,"summary":"武汉长江大桥（Wuhan Yangtze River Bridge），是中国湖北省武汉市境内连接汉阳区与武昌区的过江通道，位于长江水道之上，是中华人民共和国成立后修建的第一座公铁两用的长江大桥，也是武汉市重要的历史标志性建筑之一，素有“万里长江第一桥”美誉。 [1]武汉长江大桥于1955年9月1日动工兴建；于1957年7月1日完成主桥合龙工程；于1957年1"},"geometry":{"type":"LineString","coordinates":[[114.269,30.53855],[114.28573,30.52886]]}},{"type":"Feature","properties":{"id":"BR03","name":"杨泗港长江大桥","category":"bridge","categoryName":"跨江桥梁","length_m":1988,"summary":"武汉长江大桥（Wuhan Yangtze River Bridge），是中国湖北省武汉市境内连接汉阳区与武昌区的过江通道，位于长江水道之上，是中华人民共和国成立后修建的第一座公铁两用的长江大桥，也是武汉市重要的历史标志性建筑之一，素有“万里长江第一桥”美誉。 [1]武汉长江大桥于1955年9月1日动工兴建；于1957年7月1日完成主桥合龙工程；于1957年1"},"geometry":{"type":"LineString","coordinates":[[114.24938,30.51517],[114.26548,30.5039]]}},{"type":"Feature","properties":{"id":"BR04","name":"白沙洲长江大桥","category":"bridge","categoryName":"跨江桥梁","length_m":2140,"summary":"武汉长江大桥（Wuhan Yangtze River Bridge），是中国湖北省武汉市境内连接汉阳区与武昌区的过江通道，位于长江水道之上，是中华人民共和国成立后修建的第一座公铁两用的长江大桥，也是武汉市重要的历史标志性建筑之一，素有“万里长江第一桥”美誉。 [1]武汉长江大桥于1955年9月1日动工兴建；于1957年7月1日完成主桥合龙工程；于1957年1"},"geometry":{"type":"LineString","coordinates":[[114.23146,30.49316],[114.24926,30.48154]]}}]}