{"type":"FeatureCollection","features":[{"type":"Feature","properties":{"id":"OSM-relation-34246-ISLAND-0","name":"江心洲（16.9 km²）","category":"shoreline","river":"长江","bank":"江心洲","area_km2":16.888,"source":"OpenStreetMap（ODbL 1.0）"},"geometry":{"type":"LineString","coordinates":[[114.46769,30.69109],[114.46227,30.69195],[114.46184,30.6922],[114.46114,30.69208],[114.45326,30.69256],[114.44624,30.69242],[114.43115,30.69136],[114.41978,30.68934],[114.41504,30.68828],[114.41153,30.68741],[114.40504,30.68537],[114.3999,30.68425],[114.39287,30.68221],[114.38887,30.68069],[114.38607,30.67877],[114.37763,30.67372],[114.37513,30.67197],[114.37155,30.66882],[114.37003,30.6671],[114.36769,30.66278],[114.36645,30.65961],[114.36646,30.65924],[114.36687,30.65903],[114.36973,30.65969],[114.37647,30.66177],[114.37844,30.66203],[114.38175,30.66221],[114.38766,30.66204],[114.39436,30.66281],[114.396,30.66286],[114.39662,30.6628],[114.39681,30.66237],[114.39721,30.66231],[114.39726,30.66202],[114.39786,30.66184],[114.39825,30.66199],[114.39862,30.66174],[114.39873,30.66191],[114.39812,30.66251],[114.39804,30.6629],[114.3983,30.6631],[114.39958,30.66348],[114.4005,30.66353],[114.40085,30.66377],[114.4017,30.66374],[114.40275,30.66397],[114.4035,30.66341],[114.40329,30.66395],[114.40552,30.66436],[114.40884,30.66561],[114.40944,30.66573],[114.41005,30.6656],[114.41172,30.6666],[114.41803,30.66848],[114.41823,30.66871],[114.41912,30.66889],[114.42066,30.6696],[114.42352,30.67046],[114.42328,30.67097],[114.42351,30.67115],[114.42517,30.67134],[114.42554,30.6716],[114.42627,30.67149],[114.4291,30.67299],[114.43576,30.67599],[114.44126,30.67783],[114.4424,30.6784],[114.44495,30.67882],[114.45031,30.68014],[114.45786,30.68257],[114.46136,30.68338],[114.46483,30.68469],[114.4658,30.68476],[114.46666,30.68529],[114.47054,30.68586],[114.47716,30.68772],[114.48069,30.68848],[114.48093,30.6887],[114.47619,30.68978],[114.46874,30.69092],[114.46769,30.69109]]}},{"type":"Feature","properties":{"id":"OSM-relation-34232-ISLAND-0","name":"江心洲（0.6 km²）","category":"shoreline","river":"长江","bank":"江心洲","area_km2":0.552,"source":"OpenStreetMap（ODbL 1.0）"},"geometry":{"type":"LineString","coordinates":[[114.11972,30.34808],[114.11843,30.34744],[114.11439,30.34451],[114.11302,30.34338],[114.11152,30.34175],[114.11071,30.34059],[114.1104,30.3396],[114.10989,30.33555],[114.11007,30.33478],[114.11053,30.3345],[114.11097,30.33455],[114.11217,30.33543],[114.11346,30.33667],[114.11612,30.3399],[114.1187,30.34495],[114.11975,30.34803],[114.11972,30.34808]]}},{"type":"Feature","properties":{"id":"OSM-relation-34176-ISLAND-0","name":"江心洲（5.8 km²）","category":"shoreline","river":"长江","bank":"江心洲","area_km2":5.8,"source":"OpenStreetMap（ODbL 1.0）"},"geometry":{"type":"LineString","coordinates":[[113.88102,30.22866],[113.87707,30.22422],[113.86975,30.21394],[113.86479,30.20858],[113.86465,30.20823],[113.86494,30.20752],[113.86486,30.20651],[113.86451,30.20513],[113.8631,30.20361],[113.86078,30.20184],[113.86081,30.20144],[113.86342,30.19787],[113.8651,30.19624],[113.86721,30.1951],[113.87038,30.19424],[113.8743,30.19381],[113.87577,30.19381],[113.87857,30.19415],[113.88227,30.19522],[113.8879,30.19588],[113.8884,30.19601],[113.88872,30.19641],[113.8886,30.197],[113.88751,30.19802],[113.88675,30.19923],[113.88582,30.20362],[113.88529,30.21178],[113.8853,30.21815],[113.88237,30.22464],[113.88106,30.22864],[113.88102,30.22866]]}},{"type":"Feature","properties":{"id":"OSM-relation-34176-ISLAND-1","name":"江心洲（4.8 km²）","category":"shoreline","river":"长江","bank":"江心洲","area_km2":4.841,"source":"OpenStreetMap（ODbL 1.0）"},"geometry":{"type":"LineString","coordinates":[[114.02259,30.16653],[114.02346,30.16596],[114.0237,30.16671],[114.02638,30.16936],[114.02678,30.16994],[114.02699,30.17104],[114.02685,30.17256],[114.02602,30.1732],[114.02629,30.17344],[114.02624,30.17462],[114.02528,30.17601],[114.02395,30.1773],[114.01954,30.18013],[114.01052,30.18724],[114.01009,30.18739],[114.00715,30.18969],[114.00675,30.18963],[114.00649,30.19006],[114.0046,30.19114],[114.00418,30.19211],[114.00228,30.19315],[113.9972,30.19542],[113.99687,30.19539],[113.99737,30.195],[113.99703,30.19499],[113.99619,30.19543],[113.99605,30.19581],[113.99213,30.19725],[113.99097,30.19731],[113.99043,30.19774],[113.98911,30.19827],[113.9886,30.19821],[113.98814,30.19868],[113.98628,30.19956],[113.98581,30.19964],[113.98568,30.19949],[113.98533,30.19985],[113.9828,30.20075],[113.98146,30.20204],[113.97891,30.20302],[113.9771,30.20347],[113.97584,30.20357],[113.97137,30.20347],[113.97013,30.20325],[113.97097,30.20295],[113.97039,30.20267],[113.96671,30.20319],[113.96975,30.20067],[113.97248,30.19886],[113.97313,30.19875],[113.97494,30.19737],[113.97603,30.19714],[113.98135,30.19683],[113.98442,30.1957],[113.98657,30.19443],[113.99478,30.1887],[113.99851,30.18654],[114.0029,30.1833],[114.00575,30.18095],[114.01037,30.17656],[114.02139,30.16749],[114.02259,30.16653]]}},{"type":"Feature","properties":{"id":"OSM-relation-34179-ISLAND-1","name":"江心洲（0.5 km²）","category":"shoreline","river":"长江","bank":"江心洲","area_km2":0.511,"source":"OpenStreetMap（ODbL 1.0）"},"geometry":{"type":"LineString","coordinates":[[114.24344,30.48805],[114.24337,30.4868],[114.24158,30.48521],[114.24027,30.48275],[114.23995,30.47945],[114.2402,30.47907],[114.24047,30.47902],[114.24129,30.4795],[114.2437,30.48254],[114.24586,30.48567],[114.25184,30.49577],[114.25161,30.49587],[114.25091,30.49539],[114.24574,30.49108],[114.24425,30.4895],[114.24348,30.48821],[114.24344,30.48805]]}},{"type":"Feature","properties":{"id":"OSM-relation-34176-L-5","name":"长江左岸","category":"shoreline","river":"长江","bank":"左岸","source":"OpenStreetMap（ODbL 1.0）"},"geometry":{"type":"LineString","coordinates":[[113.8508,30.20028],[113.8572,30.21065],[113.85774,30.2125],[113.86167,30.21985],[113.86285,30.22149],[113.86349,30.22332],[113.86535,30.22546],[113.86753,30.22878],[113.86955,30.23074],[113.87081,30.23226],[113.87113,30.23302],[113.87281,30.23495],[113.87403,30.23596],[113.87492,30.23747],[113.87681,30.23995],[113.88357,30.25311],[113.88781,30.2602],[113.8904,30.26412],[113.90376,30.25898],[113.90127,30.25595],[113.89392,30.24622],[113.89111,30.24302],[113.88735,30.23827],[113.88645,30.23682],[113.88585,30.2344],[113.88578,30.23173],[113.88682,30.22725],[113.88978,30.21995],[113.89042,30.21687],[113.89155,30.21422],[113.89291,30.21252],[113.89334,30.21168],[113.89377,30.21017],[113.89414,30.20681],[113.89446,30.20553],[113.89593,30.20295],[113.89638,30.20235],[113.89762,30.2013],[113.89936,30.2003],[113.90181,30.19948],[113.90541,30.19911],[113.90642,30.19921],[113.90728,30.19951],[113.90952,30.19902],[113.91141,30.19984],[113.91329,30.20106],[113.91394,30.20169],[113.91473,30.20184],[113.9156,30.2024],[113.9165,30.20236],[113.91827,30.20284],[113.91991,30.2027],[113.92312,30.20473],[113.92583,30.20551],[113.92733,30.20575],[113.92814,30.20624],[113.92891,30.20626],[113.93042,30.20668],[113.93416,30.20883],[113.93427,30.20911],[113.93505,30.20967],[113.93706,30.21024],[113.93957,30.21136],[113.94218,30.2119],[113.94527,30.21208],[113.95087,30.21142],[113.95375,30.21074],[113.95706,30.20948],[113.95979,30.20823],[113.96537,30.20509],[113.96677,30.20458],[113.97033,30.20386],[113.97484,30.20389],[113.97578,30.20424],[113.97865,30.20347],[113.98225,30.20188],[113.98418,30.20072],[113.98613,30.20014],[113.9911,30.19796],[113.99235,30.19768],[113.99591,30.19636],[113.9996,30.1948],[114.00421,30.19248],[114.00461,30.19216],[114.00513,30.19124],[114.00577,30.19072],[114.00724,30.1901],[114.00939,30.18857],[114.01061,30.18805],[114.01126,30.18734],[114.01218,30.1868],[114.01228,30.18631],[114.01461,30.18459],[114.0164,30.18294],[114.01675,30.18299],[114.01714,30.18275],[114.01792,30.18204],[114.01807,30.18158],[114.01833,30.18141],[114.01871,30.18146],[114.01984,30.18037],[114.02381,30.17783],[114.02616,30.17552],[114.02697,30.17355],[114.02731,30.17191],[114.02712,30.17005],[114.02561,30.16806],[114.02428,30.16686],[114.02415,30.16643],[114.0238,30.16627],[114.02377,30.16575],[114.02514,30.16432],[114.02843,30.16148],[114.03239,30.15877],[114.03359,30.15876],[114.03391,30.15773],[114.03678,30.15589],[114.03729,30.15577]]}},{"type":"Feature","properties":{"id":"OSM-relation-34176-R-6","name":"长江右岸","category":"shoreline","river":"长江","bank":"右岸","source":"OpenStreetMap（ODbL 1.0）"},"geometry":{"type":"LineString","coordinates":[[113.8508,30.20028],[113.86453,30.17953],[113.86538,30.1791],[113.86558,30.17915],[113.86695,30.17822],[113.86866,30.17742],[113.86978,30.17705],[113.87145,30.17688],[113.87728,30.17693],[113.87981,30.17711],[113.886,30.17857],[113.89245,30.18051],[113.89551,30.18178],[113.90307,30.18542],[113.90679,30.18766],[113.91698,30.19194],[113.92031,30.19363],[113.92697,30.19752],[113.93243,30.20039],[113.93468,30.20127],[113.93706,30.20273],[113.93784,30.20292],[113.94001,30.20296],[113.94745,30.20191],[113.95221,30.20042],[113.95564,30.19874],[113.95666,30.1985],[113.95797,30.19792],[113.96101,30.19591],[113.96177,30.19477],[113.96283,30.19454],[113.96355,30.1939],[113.96827,30.19087],[113.96976,30.18968],[113.97225,30.18847],[113.97287,30.18788],[113.9742,30.18743],[113.97501,30.18691],[113.9777,30.18439],[113.97966,30.18331],[113.98166,30.18275],[113.98249,30.18139],[113.98534,30.17917],[113.98568,30.17866],[113.9855,30.17809],[113.98576,30.17741],[113.98773,30.17661],[113.98916,30.17376],[113.99057,30.17228],[113.99166,30.17063],[113.99406,30.16871],[113.99486,30.16772],[113.99656,30.16665],[113.99773,30.16556],[113.99939,30.16494],[114.0038,30.16195],[114.0053,30.16116],[114.00548,30.16067],[114.00629,30.16061],[114.00737,30.15997],[114.00847,30.15898],[114.00965,30.15842],[114.01379,30.15483],[114.01466,30.15448],[114.01596,30.15338],[114.01971,30.15085],[114.02228,30.14932],[114.02814,30.14653],[114.03337,30.15144],[114.03729,30.15577]]}},{"type":"Feature","properties":{"id":"OSM-relation-67345-L-7","name":"长江左岸","category":"shoreline","river":"长江","bank":"左岸","source":"OpenStreetMap（ODbL 1.0）"},"geometry":{"type":"LineString","coordinates":[[114.02814,30.14653],[114.03337,30.15144],[114.03729,30.15577],[114.03784,30.15598],[114.03831,30.15642],[114.03925,30.15675],[114.04524,30.16195],[114.04675,30.16294],[114.04746,30.16363],[114.04728,30.16308],[114.04527,30.16179],[114.04059,30.15756],[114.03753,30.15545],[114.04448,30.15183],[114.04666,30.1505],[114.05659,30.1465],[114.05892,30.14519],[114.06386,30.14303],[114.06456,30.14244],[114.06557,30.14216],[114.06603,30.1418],[114.06702,30.1416],[114.06772,30.14091],[114.06994,30.13993],[114.07018,30.13961],[114.07045,30.13957],[114.07067,30.13915],[114.07255,30.13833],[114.07395,30.13727],[114.07452,30.13717],[114.07492,30.13677],[114.0759,30.13651],[114.07639,30.13598],[114.07777,30.1353],[114.08036,30.13339],[114.0807,30.13332],[114.08064,30.13377],[114.07932,30.13489],[114.07849,30.13519],[114.07702,30.13621],[114.07596,30.13667],[114.07582,30.13768],[114.07665,30.13816],[114.07722,30.13794],[114.07765,30.13738],[114.07798,30.13739],[114.07844,30.13781],[114.07993,30.1371],[114.0803,30.13664],[114.08154,30.13641],[114.08164,30.13607],[114.08077,30.1356],[114.08099,30.13524],[114.0818,30.13509],[114.08215,30.13468],[114.08219,30.13441],[114.08191,30.13413],[114.0812,30.13442],[114.08135,30.13381],[114.08192,30.13301],[114.08218,30.13306],[114.08206,30.13374],[114.08252,30.13411],[114.08285,30.13388],[114.0829,30.1335],[114.08246,30.13305],[114.08302,30.13291],[114.08315,30.13261],[114.08268,30.13158],[114.08288,30.13143],[114.08341,30.13146],[114.08355,30.13092],[114.08405,30.13072],[114.08455,30.1302],[114.08622,30.12935],[114.08906,30.12659],[114.09082,30.12454],[114.09183,30.123],[114.09305,30.12]]}},{"type":"Feature","properties":{"id":"OSM-relation-67345-R-8","name":"长江右岸","category":"shoreline","river":"长江","bank":"右岸","source":"OpenStreetMap（ODbL 1.0）"},"geometry":{"type":"LineString","coordinates":[[114.02814,30.14653],[114.04235,30.14066],[114.06141,30.13397],[114.06268,30.13368],[114.06637,30.13178],[114.06844,30.13107],[114.07006,30.1303],[114.0745,30.12757],[114.07921,30.12393],[114.07978,30.12334],[114.08042,30.12201],[114.08086,30.12092],[114.08093,30.12],[114.09305,30.12]]}},{"type":"Feature","properties":{"id":"OSM-relation-34232-L-9","name":"长江左岸","category":"shoreline","river":"长江","bank":"左岸","source":"OpenStreetMap（ODbL 1.0）"},"geometry":{"type":"LineString","coordinates":[[113.8904,30.26412],[113.89231,30.26704],[113.89581,30.27168],[113.8999,30.27636],[113.90329,30.27969],[113.90734,30.28283],[113.91256,30.28777],[113.92076,30.29492],[113.92361,30.29711],[113.92931,30.30084],[113.93494,30.30377],[113.93509,30.30444],[113.93586,30.30422],[113.93911,30.30579],[113.94191,30.30649],[113.94962,30.30759],[113.95877,30.3079],[113.96357,30.30717],[113.96659,30.30621],[113.96795,30.30553],[113.97125,30.30334],[113.97408,30.30095],[113.97595,30.30009],[113.97686,30.29911],[113.97788,30.29837],[113.97924,30.29756],[113.98042,30.29715],[113.98406,30.29435],[113.9866,30.29297],[113.98951,30.29091],[113.99216,30.28862],[113.99576,30.28627],[113.99824,30.28904],[113.99857,30.28882],[113.99621,30.28596],[113.99993,30.28329],[114.00488,30.27913],[114.00912,30.27523],[114.01186,30.27209],[114.01333,30.27113],[114.0169,30.26691],[114.01915,30.26308],[114.01957,30.26295],[114.02193,30.25806],[114.0249,30.25251],[114.02699,30.24784],[114.02798,30.24428],[114.02958,30.24113],[114.03229,30.237],[114.03462,30.23414],[114.03628,30.2324],[114.03977,30.22995],[114.04156,30.22911],[114.04356,30.22847],[114.04598,30.22802],[114.04788,30.22806],[114.05103,30.2288],[114.05251,30.22936],[114.05458,30.23054],[114.05615,30.23171],[114.05957,30.23478],[114.06102,30.23644],[114.06382,30.24043],[114.07189,30.25382],[114.07506,30.26095],[114.0769,30.26579],[114.0792,30.2733],[114.08141,30.28176],[114.0823,30.28916],[114.08311,30.30159],[114.08407,30.30833],[114.08483,30.31126],[114.08476,30.31165],[114.08508,30.31225],[114.0852,30.31389],[114.08731,30.32094],[114.0883,30.32271],[114.08821,30.32349],[114.09136,30.32918],[114.09499,30.33387],[114.09666,30.33832],[114.09795,30.34084],[114.09818,30.34094],[114.10035,30.34447],[114.10148,30.34586],[114.10435,30.34893],[114.10707,30.35126],[114.10942,30.35301],[114.1098,30.35309],[114.11071,30.35375],[114.11103,30.35362],[114.11156,30.35373],[114.11522,30.35547],[114.1162,30.35615],[114.11638,30.35649],[114.11983,30.35839],[114.11993,30.35874],[114.12126,30.35925],[114.12332,30.36071],[114.12428,30.36112],[114.1245,30.36168],[114.12609,30.36321],[114.12699,30.36518],[114.12824,30.36603],[114.12929,30.36707],[114.12945,30.36757],[114.13088,30.36965],[114.1325,30.37117],[114.13264,30.37159],[114.13414,30.37337],[114.13683,30.37614],[114.13791,30.37691],[114.13815,30.37742],[114.14542,30.38614],[114.14982,30.39192],[114.15062,30.39221],[114.15115,30.39276],[114.15136,30.3932],[114.15117,30.39366],[114.15232,30.39531],[114.16656,30.39068]]}},{"type":"Feature","properties":{"id":"OSM-relation-34232-R-10","name":"长江右岸","category":"shoreline","river":"长江","bank":"右岸","source":"OpenStreetMap（ODbL 1.0）"},"geometry":{"type":"LineString","coordinates":[[113.8904,30.26412],[113.90376,30.25898],[113.90563,30.26142],[113.9091,30.26526],[113.91609,30.27252],[113.91681,30.27298],[113.91732,30.27383],[113.91837,30.27413],[113.9198,30.27572],[113.92046,30.27608],[113.9235,30.27892],[113.9244,30.27999],[113.92512,30.28048],[113.92542,30.28109],[113.92642,30.28215],[113.93593,30.28917],[113.93852,30.29059],[113.94153,30.29183],[113.94434,30.29279],[113.94707,30.2935],[113.95158,30.294],[113.95646,30.29427],[113.95781,30.29425],[113.96349,30.29341],[113.96984,30.29285],[113.97204,30.29249],[113.97547,30.2911],[113.97744,30.29003],[113.98159,30.2868],[113.98897,30.28005],[113.99654,30.27239],[114.00254,30.26587],[114.00582,30.26175],[114.0089,30.25701],[114.01418,30.24735],[114.02029,30.23543],[114.02457,30.22896],[114.03205,30.21917],[114.03451,30.21741],[114.03585,30.21534],[114.03635,30.21505],[114.0406,30.21383],[114.04237,30.21378],[114.04355,30.21397],[114.04377,30.214],[114.04532,30.21402],[114.04557,30.21387],[114.04576,30.21408],[114.04746,30.21455],[114.04855,30.21537],[114.04957,30.21519],[114.05132,30.21583],[114.05205,30.21627],[114.05347,30.21774],[114.05437,30.21809],[114.05572,30.21906],[114.05678,30.21945],[114.05777,30.22014],[114.0598,30.22245],[114.05998,30.22286],[114.05995,30.22365],[114.06048,30.22413],[114.0615,30.2261],[114.06251,30.22755],[114.06591,30.23063],[114.07253,30.23773],[114.07568,30.24136],[114.079,30.24618],[114.07952,30.2467],[114.08085,30.24742],[114.08178,30.24901],[114.08528,30.25301],[114.08641,30.25508],[114.08674,30.25618],[114.08827,30.25947],[114.09078,30.267],[114.0924,30.27731],[114.0945,30.28339],[114.09455,30.2846],[114.09492,30.28623],[114.09484,30.28863],[114.09538,30.28982],[114.0954,30.29154],[114.09506,30.29395],[114.0954,30.29504],[114.09515,30.29781],[114.09546,30.30034],[114.09684,30.30388],[114.0974,30.30647],[114.09808,30.30719],[114.0984,30.30828],[114.10311,30.31407],[114.10876,30.32003],[114.11167,30.32273],[114.12,30.32978],[114.12187,30.33215],[114.12288,30.33362],[114.12422,30.33623],[114.12459,30.33636],[114.12427,30.33772],[114.1243,30.34014],[114.12447,30.34075],[114.12441,30.34482],[114.12364,30.34614],[114.12362,30.34708],[114.12421,30.34777],[114.1256,30.34881],[114.126,30.35048],[114.12841,30.35328],[114.13114,30.35577],[114.13255,30.35673],[114.13494,30.3592],[114.13512,30.35944],[114.13501,30.35975],[114.13723,30.36238],[114.13792,30.36351],[114.13835,30.36455],[114.1383,30.36552],[114.13894,30.36608],[114.14018,30.36672],[114.14088,30.36773],[114.1414,30.36796],[114.14431,30.37089],[114.14451,30.37135],[114.15057,30.37689],[114.152,30.37795],[114.15337,30.37937],[114.15403,30.37973],[114.15441,30.38017],[114.15787,30.38276],[114.16082,30.38556],[114.16404,30.38796],[114.16656,30.39068]]}},{"type":"Feature","properties":{"id":"OSM-relation-34179-R-11","name":"长江右岸","category":"shoreline","river":"长江","bank":"右岸","source":"OpenStreetMap（ODbL 1.0）"},"geometry":{"type":"LineString","coordinates":[[114.15232,30.39531],[114.16656,30.39068],[114.16878,30.3926],[114.17537,30.39997],[114.17588,30.40102],[114.17618,30.40114],[114.17664,30.40195],[114.1783,30.40368],[114.17943,30.40557],[114.18203,30.40913],[114.1874,30.41885],[114.1896,30.42334],[114.18986,30.42447],[114.19002,30.4275],[114.18973,30.4291],[114.18985,30.42964],[114.19274,30.43506],[114.19406,30.43672],[114.19673,30.44089],[114.19799,30.44205],[114.20135,30.44428],[114.20163,30.44463],[114.20428,30.44604],[114.20479,30.44615],[114.21172,30.45006],[114.21868,30.45443],[114.22135,30.45566],[114.22726,30.46031],[114.2339,30.46596],[114.23553,30.46829],[114.2395,30.4716],[114.24059,30.47301],[114.24098,30.47399],[114.2421,30.47511],[114.24263,30.47538],[114.24362,30.47659],[114.2445,30.47795],[114.24463,30.47865],[114.24516,30.47959],[114.24587,30.4801],[114.24809,30.48304],[114.24917,30.48517],[114.24956,30.48644],[114.25131,30.48853],[114.25454,30.49392],[114.25655,30.49612],[114.25815,30.49731],[114.25993,30.49944],[114.25986,30.49954],[114.26057,30.5],[114.26051,30.50014],[114.26364,30.50291],[114.26437,30.50374],[114.26432,30.50408],[114.26453,30.50438],[114.26546,30.50482],[114.2664,30.50563],[114.26625,30.50585],[114.26813,30.50729],[114.27179,30.51071],[114.27517,30.51434],[114.27549,30.51494],[114.27943,30.51939],[114.28136,30.5221],[114.28309,30.5257],[114.28381,30.52754],[114.28428,30.52949],[114.28404,30.52962],[114.28431,30.52998],[114.28447,30.52989],[114.28498,30.5317],[114.28699,30.53079],[114.28759,30.53081],[114.28481,30.53224],[114.28494,30.53271],[114.28594,30.53233],[114.286,30.53245],[114.28455,30.53391],[114.28447,30.53442],[114.28353,30.53557],[114.28334,30.53614],[114.28395,30.5368],[114.28423,30.53775],[114.2841,30.53818],[114.28424,30.53963],[114.28455,30.54027],[114.28445,30.54127],[114.28542,30.54191],[114.2855,30.54262],[114.28667,30.54569],[114.28719,30.54566]]}},{"type":"Feature","properties":{"id":"OSM-relation-34179-L-12","name":"长江左岸","category":"shoreline","river":"长江","bank":"左岸","source":"OpenStreetMap（ODbL 1.0）"},"geometry":{"type":"LineString","coordinates":[[114.15232,30.39531],[114.15758,30.40239],[114.16324,30.41096],[114.16471,30.41293],[114.16661,30.41502],[114.168,30.41794],[114.16985,30.42079],[114.17011,30.42188],[114.17084,30.4234],[114.17191,30.4245],[114.17213,30.42522],[114.1733,30.42702],[114.17763,30.43546],[114.18069,30.44053],[114.1835,30.44441],[114.18614,30.44761],[114.19245,30.45436],[114.19429,30.45593],[114.19463,30.45611],[114.19666,30.45698],[114.19814,30.4583],[114.2015,30.46009],[114.20236,30.46072],[114.20867,30.4662],[114.2113,30.46874],[114.21161,30.46944],[114.21236,30.46971],[114.21303,30.47038],[114.21576,30.47424],[114.21687,30.47511],[114.21769,30.47636],[114.2224,30.4819],[114.22728,30.48742],[114.22835,30.48831],[114.23024,30.49083],[114.23273,30.49347],[114.23575,30.49766],[114.23612,30.4978],[114.23808,30.50053],[114.23948,30.50192],[114.24092,30.50389],[114.24145,30.50417],[114.24147,30.5044],[114.24877,30.5132],[114.25003,30.51439],[114.25168,30.51645],[114.25237,30.51699],[114.25415,30.51902],[114.25583,30.52048],[114.25695,30.52182],[114.25729,30.5216],[114.25924,30.52375],[114.26675,30.53409],[114.26782,30.53611],[114.26861,30.53691],[114.26924,30.53815],[114.26939,30.53806],[114.26967,30.53842],[114.26946,30.53855],[114.27096,30.54083],[114.27346,30.54549],[114.27387,30.54589],[114.27496,30.54859],[114.28719,30.54566]]}},{"type":"Feature","properties":{"id":"OSM-relation-14069780-R-13","name":"长江右岸","category":"shoreline","river":"长江","bank":"右岸","source":"OpenStreetMap（ODbL 1.0）"},"geometry":{"type":"LineString","coordinates":[[114.27567,30.54832],[114.28719,30.54566],[114.28768,30.54796],[114.28764,30.54911],[114.28968,30.55296],[114.29105,30.55449],[114.29396,30.5588],[114.29537,30.56054],[114.29856,30.56354],[114.30116,30.56639],[114.30418,30.57087],[114.30464,30.57181],[114.30484,30.57181],[114.30863,30.5788],[114.30984,30.58007],[114.31411,30.58601],[114.31525,30.58713],[114.3163,30.58866],[114.31827,30.5918],[114.31861,30.59305],[114.31881,30.59306],[114.31862,30.59318],[114.31884,30.59387],[114.31949,30.59489],[114.33161,30.60917],[114.34224,30.61935]]}},{"type":"Feature","properties":{"id":"OSM-relation-14069780-L-14","name":"长江左岸","category":"shoreline","river":"长江","bank":"左岸","source":"OpenStreetMap（ODbL 1.0）"},"geometry":{"type":"LineString","coordinates":[[114.27567,30.54832],[114.27731,30.55255],[114.27998,30.5574],[114.28276,30.56173],[114.28333,30.56247],[114.28502,30.56475],[114.28558,30.56622],[114.28442,30.5666],[114.28585,30.56821],[114.28638,30.5683],[114.28749,30.56912],[114.28902,30.57086],[114.29114,30.57413],[114.29172,30.57536],[114.29364,30.57782],[114.29622,30.58237],[114.2973,30.58374],[114.2982,30.58553],[114.30074,30.58964],[114.30202,30.59106],[114.30612,30.59764],[114.30793,30.59993],[114.31062,30.60423],[114.31287,30.60697],[114.31334,30.60729],[114.31423,30.60891],[114.31485,30.6095],[114.316,30.61121],[114.31651,30.61268],[114.31767,30.6141],[114.31816,30.61427],[114.31792,30.61464],[114.32073,30.61913],[114.32614,30.62641],[114.34224,30.61935]]}},{"type":"Feature","properties":{"id":"OSM-relation-34246-L-15","name":"长江左岸","category":"shoreline","river":"长江","bank":"左岸","source":"OpenStreetMap（ODbL 1.0）"},"geometry":{"type":"LineString","coordinates":[[114.32614,30.62641],[114.33626,30.6391],[114.33904,30.64214],[114.34332,30.64618],[114.34406,30.64721],[114.34399,30.64812],[114.34564,30.64917],[114.35189,30.65534],[114.35352,30.65729],[114.355,30.65853],[114.35687,30.66118],[114.3582,30.66213],[114.36049,30.66469],[114.36135,30.6661],[114.36514,30.67068],[114.36819,30.67378],[114.37123,30.6764],[114.37139,30.67664],[114.37124,30.67668],[114.36941,30.67566],[114.36974,30.67615],[114.37196,30.67771],[114.37459,30.67913],[114.38019,30.68182],[114.38212,30.68257],[114.38505,30.68423],[114.38826,30.68562],[114.39447,30.68795],[114.39754,30.68944],[114.39949,30.68994],[114.39969,30.68976],[114.40086,30.69004],[114.4129,30.69364],[114.42097,30.69569],[114.43032,30.69762],[114.43916,30.69893],[114.44854,30.69992],[114.45648,30.70013],[114.46528,30.69933],[114.47402,30.69822],[114.48311,30.69682],[114.4924,30.69507],[114.4989,30.6934],[114.49958,30.69334],[114.50533,30.69175],[114.50804,30.69126],[114.50958,30.69054],[114.51095,30.69028],[114.5165,30.68852],[114.51861,30.68798],[114.51942,30.688],[114.51996,30.68744],[114.52696,30.68508],[114.53145,30.68287],[114.53339,30.68164],[114.53436,30.68076],[114.53477,30.68001],[114.53646,30.6786],[114.53761,30.67801],[114.53999,30.67578],[114.54126,30.67425],[114.54244,30.67318],[114.54505,30.66918],[114.54649,30.66569],[114.5463,30.66561],[114.54622,30.66513],[114.54678,30.66399],[114.54677,30.66364],[114.54654,30.6635],[114.54679,30.6631],[114.54663,30.66261],[114.54691,30.66211],[114.5474,30.66183],[114.54983,30.65753]]}},{"type":"Feature","properties":{"id":"OSM-relation-34246-R-16","name":"长江右岸","category":"shoreline","river":"长江","bank":"右岸","source":"OpenStreetMap（ODbL 1.0）"},"geometry":{"type":"LineString","coordinates":[[114.32614,30.62641],[114.34224,30.61935],[114.34264,30.6202],[114.3451,30.62235],[114.34793,30.62444],[114.34826,30.62491],[114.35142,30.62713],[114.35497,30.63009],[114.36496,30.63686],[114.36806,30.63909],[114.36869,30.63975],[114.37069,30.64099],[114.37694,30.64397],[114.37837,30.64443],[114.37966,30.64509],[114.37976,30.645],[114.38,30.64527],[114.381,30.64558],[114.38148,30.64593],[114.38169,30.64579],[114.38167,30.646],[114.3845,30.64731],[114.39039,30.65074],[114.39449,30.65241],[114.39644,30.65297],[114.39738,30.65305],[114.39896,30.65368],[114.40526,30.65541],[114.40686,30.65607],[114.40809,30.65605],[114.41153,30.65722],[114.41324,30.65804],[114.41499,30.65845],[114.41521,30.65874],[114.41848,30.65942],[114.41912,30.65988],[114.41985,30.6598],[114.42157,30.66026],[114.42273,30.66077],[114.42398,30.66086],[114.42771,30.66202],[114.42836,30.66199],[114.42922,30.66244],[114.43214,30.66323],[114.43728,30.66513],[114.44055,30.66655],[114.44418,30.66766],[114.44439,30.66557],[114.4439,30.66543],[114.44389,30.66524],[114.44407,30.66523],[114.44425,30.66183],[114.44406,30.6617],[114.44416,30.66004],[114.44433,30.65953],[114.4448,30.65936],[114.44479,30.65832],[114.4453,30.65742],[114.44505,30.65651],[114.44539,30.65739],[114.44494,30.65814],[114.44494,30.65861],[114.44528,30.65908],[114.44576,30.65916],[114.44584,30.65931],[114.44561,30.66798],[114.44698,30.66898],[114.44932,30.67027],[114.45623,30.67279],[114.45713,30.67286],[114.45859,30.67349],[114.46301,30.67467],[114.46318,30.67474],[114.46362,30.67492],[114.46407,30.67486],[114.46639,30.67527],[114.46672,30.67547],[114.4671,30.67542],[114.46767,30.67565],[114.46778,30.67587],[114.46885,30.67624],[114.46909,30.67596],[114.46957,30.67583],[114.4699,30.67611],[114.47046,30.67603],[114.47342,30.67689],[114.4752,30.67719],[114.47607,30.67709],[114.47836,30.67744],[114.47907,30.67735],[114.48292,30.67769],[114.48327,30.67757],[114.48513,30.67765],[114.49219,30.67733],[114.49655,30.67696],[114.49751,30.67686],[114.4977,30.6767],[114.50044,30.67657],[114.50482,30.67602],[114.50888,30.67531],[114.51176,30.67455],[114.51726,30.67254],[114.52022,30.67104],[114.52405,30.66849],[114.52682,30.66598],[114.5269,30.66572],[114.52986,30.66285],[114.53317,30.66052],[114.53728,30.65511],[114.5377,30.65507],[114.53774,30.65459],[114.53897,30.65302],[114.54983,30.65753]]}},{"type":"Feature","properties":{"id":"OSM-relation-48119-R-17","name":"长江右岸","category":"shoreline","river":"长江","bank":"右岸","source":"OpenStreetMap（ODbL 1.0）"},"geometry":{"type":"LineString","coordinates":[[114.53897,30.65302],[114.54983,30.65753],[114.55026,30.65709],[114.55057,30.65648],[114.55049,30.65625],[114.55091,30.65588],[114.55124,30.65483],[114.55187,30.65435],[114.55186,30.65377],[114.55351,30.65172],[114.55412,30.65047],[114.55426,30.6505],[114.55509,30.64946],[114.55509,30.64903],[114.55556,30.64857],[114.55627,30.6471],[114.55709,30.64649],[114.55919,30.64209],[114.55975,30.64025],[114.55981,30.63942],[114.56071,30.63841],[114.56138,30.63703],[114.56211,30.63611],[114.56214,30.63564],[114.56313,30.63441],[114.56336,30.63335],[114.56559,30.62921],[114.56625,30.62777],[114.56628,30.62731],[114.56687,30.62662],[114.5676,30.62525],[114.56783,30.62379],[114.56864,30.62346],[114.56906,30.62272],[114.56872,30.62205],[114.56953,30.62133],[114.56992,30.61979],[114.57072,30.6181],[114.57219,30.61564],[114.57238,30.61492],[114.57331,30.6132],[114.57402,30.61241],[114.57408,30.61179],[114.57568,30.60861],[114.57628,30.60819],[114.57625,30.60779],[114.57658,30.60746],[114.57711,30.60585],[114.57765,30.60549],[114.57769,30.60463],[114.57896,30.60182],[114.58055,30.59975],[114.58067,30.59918],[114.58325,30.59508],[114.58351,30.59435],[114.58432,30.59324],[114.58478,30.59206],[114.58562,30.59098],[114.58602,30.59012],[114.59028,30.58497],[114.59306,30.58202],[114.59493,30.5804],[114.59862,30.57798],[114.6034,30.57564],[114.60602,30.57461],[114.61027,30.57335],[114.61326,30.57259],[114.61475,30.57255],[114.61785,30.57142],[114.6218,30.5708],[114.62546,30.56948],[114.63262,30.56643],[114.63334,30.56644],[114.63654,30.56864],[114.63676,30.56897],[114.63707,30.56902],[114.63767,30.56952],[114.63853,30.57053],[114.63952,30.57066],[114.6399,30.57121],[114.64435,30.57282],[114.65238,30.57759],[114.65404,30.57831],[114.65534,30.57869],[114.65775,30.57903],[114.66199,30.58066],[114.66339,30.58137],[114.66672,30.5825],[114.66728,30.58254],[114.66763,30.58283],[114.67102,30.58343],[114.67125,30.58326],[114.67137,30.5835],[114.67279,30.58365],[114.67504,30.58442],[114.67938,30.58543],[114.67977,30.5862],[114.68162,30.58656],[114.68218,30.58605],[114.68328,30.58625],[114.69295,30.58881],[114.69991,30.59024],[114.70078,30.59054],[114.7013,30.59093],[114.70198,30.591],[114.70303,30.59153],[114.71138,30.59466],[114.72057,30.59915],[114.73525,30.60734],[114.73729,30.60874],[114.73895,30.60958],[114.73935,30.60998],[114.74476,30.61319],[114.74842,30.61483],[114.74895,30.61526],[114.74954,30.61536],[114.75048,30.61595],[114.75124,30.6162],[114.75141,30.6165],[114.75217,30.61686],[114.75277,30.61696],[114.75303,30.61729],[114.75465,30.61811],[114.7582,30.61967],[114.75851,30.61973],[114.7587,30.61954],[114.76172,30.6208],[114.76743,30.62277],[114.76838,30.61633],[114.76892,30.60989]]}},{"type":"Feature","properties":{"id":"OSM-relation-48119-R-18","name":"长江右岸","category":"shoreline","river":"长江","bank":"右岸","source":"OpenStreetMap（ODbL 1.0）"},"geometry":{"type":"LineString","coordinates":[[114.53897,30.65302],[114.54154,30.64914],[114.54169,30.6485],[114.54237,30.64742],[114.54335,30.64654],[114.54489,30.64429],[114.54542,30.64393],[114.54854,30.6386],[114.55137,30.63456],[114.55716,30.62357],[114.55756,30.62225],[114.55804,30.62155],[114.55842,30.61993],[114.56078,30.61384],[114.56374,30.60512],[114.56583,30.60048],[114.56786,30.59505],[114.57317,30.5836],[114.5745,30.5816],[114.57643,30.5778],[114.57964,30.57356],[114.58174,30.57037],[114.58547,30.56618],[114.58608,30.56544],[114.58806,30.56332],[114.59053,30.56129],[114.59234,30.56004],[114.59657,30.55764],[114.59879,30.55719],[114.60012,30.55673],[114.60486,30.55455],[114.60943,30.55272],[114.61542,30.5515],[114.61601,30.55157],[114.62179,30.55092],[114.62327,30.55094],[114.62716,30.55157],[114.62976,30.55237],[114.63145,30.55333],[114.63445,30.55467],[114.6357,30.55558],[114.63614,30.55571],[114.63679,30.55636],[114.63784,30.55771],[114.6383,30.558],[114.63827,30.55915],[114.63856,30.55865],[114.63866,30.55952],[114.63959,30.56014],[114.64018,30.5608],[114.64144,30.56146],[114.64468,30.56233],[114.64613,30.56315],[114.64645,30.5635],[114.64739,30.56386],[114.64809,30.56466],[114.64962,30.56513],[114.6518,30.56612],[114.65621,30.56637],[114.66257,30.56732],[114.66381,30.56771],[114.66455,30.56753],[114.66734,30.56791],[114.66884,30.56823],[114.66927,30.56857],[114.66995,30.56832],[114.67055,30.56856],[114.67134,30.56851],[114.67269,30.56877],[114.67328,30.56867],[114.67488,30.5688],[114.67604,30.56908],[114.688,30.57021],[114.69453,30.5711],[114.69977,30.57206],[114.70311,30.57306],[114.70583,30.57349],[114.70804,30.5741],[114.71103,30.57512],[114.71536,30.57715],[114.71885,30.57843],[114.72205,30.58026],[114.73106,30.58446],[114.73438,30.58647],[114.73737,30.5886],[114.73796,30.58922],[114.7392,30.58998],[114.74192,30.59214],[114.74316,30.59336],[114.74368,30.59424],[114.74618,30.5969],[114.7478,30.59894],[114.74847,30.60014],[114.74866,30.6012],[114.74902,30.60163],[114.75133,30.60277],[114.75838,30.60696],[114.76023,30.60763],[114.76594,30.60909],[114.76675,30.60946],[114.76746,30.60943],[114.76892,30.60989]]}},{"type":"Feature","properties":{"id":"OSM-relation-49213-R-19","name":"长江右岸","category":"shoreline","river":"长江","bank":"右岸","source":"OpenStreetMap（ODbL 1.0）"},"geometry":{"type":"LineString","coordinates":[[114.76743,30.62277],[114.76838,30.61633],[114.76892,30.60989],[114.7731,30.61038],[114.78304,30.61036],[114.78338,30.60999],[114.78718,30.60961],[114.79258,30.60848],[114.79771,30.60649],[114.79928,30.60563],[114.80328,30.60265],[114.81048,30.59694],[114.8155,30.59018],[114.81955,30.58354],[114.82,30.58251]]}},{"type":"Feature","properties":{"id":"OSM-relation-49213-L-20","name":"长江左岸","category":"shoreline","river":"长江","bank":"左岸","source":"OpenStreetMap（ODbL 1.0）"},"geometry":{"type":"LineString","coordinates":[[114.76743,30.62277],[114.7718,30.62445],[114.77411,30.62501],[114.77441,30.62528],[114.77822,30.62624],[114.78255,30.62708],[114.78266,30.62721],[114.78244,30.62781],[114.78259,30.62796],[114.78612,30.62884],[114.79244,30.62989],[114.79264,30.63002],[114.79269,30.63074],[114.79556,30.63151],[114.79653,30.6317],[114.79662,30.63119],[114.79689,30.63105],[114.79671,30.63178],[114.79814,30.63193],[114.8005,30.63187],[114.8062,30.63306],[114.80877,30.63337],[114.81146,30.63331],[114.81478,30.63417],[114.81748,30.63445],[114.81885,30.63431],[114.82,30.63466],[114.82,30.58251]]}},{"type":"Feature","properties":{"id":"OSM-way-87037908-R-21","name":"汉江右岸","category":"shoreline","river":"汉江","bank":"右岸","source":"OpenStreetMap（ODbL 1.0）"},"geometry":{"type":"LineString","coordinates":[[113.847,30.57543],[113.84913,30.57645],[113.85172,30.57824],[113.85389,30.58089],[113.85539,30.58372],[113.85586,30.58396],[113.85825,30.5875],[113.8649,30.59632],[113.86598,30.59841],[113.86675,30.60096],[113.86679,30.60203],[113.86679,30.603],[113.8663,30.60523],[113.86551,30.607],[113.8635,30.6095],[113.86127,30.61105],[113.85989,30.61131],[113.85882,30.61232],[113.85275,30.61575],[113.84675,30.6215],[113.846,30.623],[113.84425,30.628],[113.84044,30.63491],[113.84004,30.63611],[113.83926,30.63913],[113.83909,30.64114],[113.83925,30.64275],[113.84028,30.64499],[113.84097,30.646],[113.84045,30.64765]]}},{"type":"Feature","properties":{"id":"OSM-way-87037908-L-22","name":"汉江左岸","category":"shoreline","river":"汉江","bank":"左岸","source":"OpenStreetMap（ODbL 1.0）"},"geometry":{"type":"LineString","coordinates":[[113.847,30.57543],[113.84625,30.57525],[113.84625,30.57775],[113.8485,30.57875],[113.85,30.58025],[113.8505,30.5805],[113.85375,30.5855],[113.85475,30.5875],[113.85475,30.588],[113.86325,30.5995],[113.86417,30.60177],[113.86404,30.60398],[113.8634,30.60561],[113.86237,30.60717],[113.86142,30.60798],[113.8595,30.60925],[113.85257,30.61278],[113.84807,30.61583],[113.84613,30.6175],[113.84344,30.62183],[113.84253,30.62434],[113.84129,30.62691],[113.83803,30.63273],[113.83698,30.63607],[113.83683,30.63624],[113.83529,30.63614],[113.83475,30.63625],[113.8348,30.63684],[113.83558,30.63668],[113.83646,30.63693],[113.83664,30.63732],[113.83642,30.63794],[113.83628,30.64128],[113.837,30.6435],[113.83874,30.64693],[113.84045,30.64765]]}},{"type":"Feature","properties":{"id":"OSM-way-87037982-L-23","name":"汉江左岸","category":"shoreline","river":"汉江","bank":"左岸","source":"OpenStreetMap（ODbL 1.0）"},"geometry":{"type":"LineString","coordinates":[[113.83874,30.64693],[113.83943,30.64827],[113.84053,30.64963],[113.84149,30.65048],[113.84054,30.65145],[113.84065,30.65173],[113.84135,30.65172],[113.84176,30.65148],[113.84244,30.6514],[113.84444,30.65288],[113.84698,30.65399],[113.84846,30.65438],[113.85155,30.65455],[113.85331,30.65434],[113.8552,30.65389],[113.85736,30.65308],[113.85978,30.65127],[113.8617,30.64886],[113.86353,30.64572],[113.8639,30.64025],[113.8636,30.63814],[113.86235,30.63304],[113.86157,30.62694],[113.86237,30.62384],[113.86457,30.62246],[113.86743,30.62252],[113.86743,30.62378],[113.86831,30.62511],[113.87117,30.62624],[113.87454,30.62612],[113.8807,30.62473],[113.88649,30.62271],[113.88847,30.62328],[113.88913,30.6246],[113.89038,30.63198],[113.89236,30.63457],[113.8958,30.63627],[113.89932,30.63665],[113.90255,30.63589],[113.90599,30.63425],[113.91039,30.63104],[113.91442,30.62927],[113.91911,30.6282],[113.923,30.6282],[113.92784,30.63116],[113.93179,30.63469],[113.93253,30.63659],[113.93209,30.63772],[113.92989,30.63867],[113.92564,30.63943],[113.92204,30.6393],[113.91919,30.64119],[113.9175,30.64384],[113.91728,30.6475],[113.9186,30.65053],[113.92036,30.65261],[113.92402,30.65535],[113.92392,30.6558],[113.92431,30.65602],[113.92522,30.6561],[113.92553,30.65649],[113.92537,30.6567],[113.92573,30.65695],[113.92672,30.65719],[113.93058,30.66032],[113.93471,30.66522],[113.94638,30.68085],[113.94958,30.68465],[113.95113,30.68401],[113.95215,30.68301]]}},{"type":"Feature","properties":{"id":"OSM-way-87037982-R-24","name":"汉江右岸","category":"shoreline","river":"汉江","bank":"右岸","source":"OpenStreetMap（ODbL 1.0）"},"geometry":{"type":"LineString","coordinates":[[113.83874,30.64693],[113.84045,30.64765],[113.84097,30.646],[113.84253,30.64794],[113.84456,30.64975],[113.8462,30.65088],[113.8487,30.65193],[113.85152,30.65246],[113.85339,30.65223],[113.85564,30.65143],[113.85691,30.65061],[113.85861,30.64894],[113.85981,30.64722],[113.86071,30.64496],[113.86133,30.64244],[113.86089,30.63804],[113.85815,30.62925],[113.85742,30.62552],[113.85743,30.6222],[113.85839,30.62036],[113.86052,30.61972],[113.86145,30.61965],[113.86276,30.6191],[113.86486,30.61882],[113.86684,30.6193],[113.87146,30.62157],[113.87469,30.62246],[113.87718,30.62271],[113.87923,30.62208],[113.88231,30.62031],[113.88407,30.61905],[113.88832,30.61804],[113.89162,30.61861],[113.8928,30.61974],[113.89543,30.63028],[113.89646,30.63198],[113.89807,30.63312],[113.90027,30.63356],[113.90167,30.6328],[113.90694,30.62851],[113.91303,30.62612],[113.91721,30.62511],[113.9219,30.62492],[113.9252,30.62618],[113.9304,30.62895],[113.9337,30.62952],[113.93436,30.63097],[113.93678,30.63356],[113.93751,30.63583],[113.93693,30.63842],[113.93517,30.63987],[113.92769,30.64201],[113.92512,30.64296],[113.92241,30.6451],[113.92109,30.64699],[113.92138,30.64889],[113.92329,30.6509],[113.92725,30.6533],[113.93663,30.66225],[113.93869,30.66585],[113.94257,30.67007],[113.95215,30.68301]]}},{"type":"Feature","properties":{"id":"OSM-way-27469201-L-25","name":"汉江左岸","category":"shoreline","river":"汉江","bank":"左岸","source":"OpenStreetMap（ODbL 1.0）"},"geometry":{"type":"LineString","coordinates":[[113.99852,30.61362],[113.99986,30.61528],[114.00352,30.61286],[114.00746,30.6112],[114.00776,30.61125],[114.01097,30.61026],[114.01376,30.60999],[114.01545,30.61051],[114.01569,30.61085],[114.0168,30.61159],[114.01744,30.61242],[114.01854,30.61283],[114.01866,30.61318],[114.02066,30.61484],[114.02533,30.61827],[114.02528,30.6184],[114.0243,30.61793],[114.02324,30.61726],[114.02284,30.61737],[114.02355,30.61793],[114.02492,30.61853],[114.0285,30.61932],[114.03151,30.61915],[114.03397,30.61868],[114.03693,30.61722]]}},{"type":"Feature","properties":{"id":"OSM-way-27469201-L-26","name":"汉江左岸","category":"shoreline","river":"汉江","bank":"左岸","source":"OpenStreetMap（ODbL 1.0）"},"geometry":{"type":"LineString","coordinates":[[113.99852,30.61362],[113.99958,30.61282],[114.00339,30.61052],[114.00585,30.60965],[114.01052,30.60816],[114.01284,30.60782],[114.01438,30.60779],[114.02032,30.61193],[114.02208,30.61364],[114.02221,30.61397],[114.02343,30.61443],[114.0252,30.61575],[114.02702,30.61672],[114.02939,30.61745],[114.03169,30.6176],[114.03305,30.61744],[114.0348,30.61681],[114.03597,30.61617],[114.03693,30.61722]]}},{"type":"Feature","properties":{"id":"OSM-way-28117018-R-27","name":"汉江右岸","category":"shoreline","river":"汉江","bank":"右岸","source":"OpenStreetMap（ODbL 1.0）"},"geometry":{"type":"LineString","coordinates":[[114.02423,30.59434],[114.03016,30.59255],[114.03404,30.5917],[114.03544,30.59116],[114.04051,30.5881],[114.04098,30.58751],[114.04418,30.58597],[114.04505,30.58573],[114.04812,30.58567],[114.05222,30.58597],[114.05459,30.58652],[114.05621,30.58742],[114.05717,30.58884],[114.057,30.5899],[114.05813,30.58992],[114.05844,30.59009],[114.059,30.59153],[114.05959,30.59199],[114.06076,30.59225],[114.06224,30.59329],[114.06853,30.59617],[114.07098,30.5971],[114.07219,30.59731],[114.07404,30.59733],[114.07595,30.59685],[114.07837,30.59588],[114.07846,30.59563],[114.07928,30.59509],[114.08147,30.59442],[114.08369,30.59432],[114.08844,30.59488],[114.093,30.59504],[114.1008,30.59398],[114.10381,30.59376],[114.10428,30.594],[114.10448,30.59379],[114.10423,30.59365],[114.10434,30.5936],[114.10664,30.59344],[114.10666,30.5957]]}},{"type":"Feature","properties":{"id":"OSM-way-28117018-R-28","name":"汉江右岸","category":"shoreline","river":"汉江","bank":"右岸","source":"OpenStreetMap（ODbL 1.0）"},"geometry":{"type":"LineString","coordinates":[[114.02423,30.59434],[114.02469,30.59692],[114.03233,30.59564],[114.03511,30.59485],[114.03727,30.59365],[114.03953,30.59212],[114.04176,30.59003],[114.0426,30.58989],[114.04332,30.58922],[114.04529,30.58803],[114.04598,30.58778],[114.04751,30.58764],[114.05058,30.5877],[114.05174,30.58799],[114.05189,30.58822],[114.05234,30.5882],[114.05407,30.58893],[114.05468,30.58945],[114.05538,30.59075],[114.0564,30.59178],[114.05784,30.59385],[114.05938,30.59532],[114.06136,30.59683],[114.06359,30.59809],[114.06513,30.59865],[114.07009,30.59974],[114.07225,30.59982],[114.07391,30.59956],[114.07498,30.59897],[114.07619,30.59868],[114.07831,30.59752],[114.08037,30.59706],[114.08464,30.59679],[114.09103,30.59727],[114.09284,30.59726],[114.09635,30.59697],[114.1006,30.59622],[114.10666,30.5957]]}},{"type":"Feature","properties":{"id":"OSM-way-28033125-R-29","name":"汉江右岸","category":"shoreline","river":"汉江","bank":"右岸","source":"OpenStreetMap（ODbL 1.0）"},"geometry":{"type":"LineString","coordinates":[[114.10664,30.59344],[114.10891,30.59309],[114.10996,30.59301],[114.11034,30.59313],[114.11124,30.59289],[114.11824,30.59329],[114.12318,30.59268],[114.127,30.59083],[114.12845,30.58973],[114.12871,30.58933],[114.12798,30.58985],[114.12838,30.58894],[114.12859,30.589],[114.12948,30.5877],[114.13014,30.58743],[114.13101,30.58594],[114.13242,30.58453],[114.13383,30.58387],[114.13278,30.58451],[114.13251,30.5848],[114.13267,30.58484],[114.1337,30.58431],[114.13695,30.5844],[114.13688,30.58415],[114.13722,30.58422],[114.13774,30.58465],[114.13839,30.58662],[114.13828,30.58751],[114.13852,30.58894],[114.1382,30.58982],[114.13851,30.59014],[114.13892,30.59016],[114.13912,30.59062],[114.1388,30.59052],[114.13834,30.59123],[114.14017,30.59409],[114.14079,30.59406],[114.14155,30.59461],[114.14431,30.59488],[114.14458,30.59485],[114.1444,30.59468],[114.14452,30.5946],[114.1449,30.59456],[114.14511,30.59478],[114.14924,30.59522],[114.15239,30.59607],[114.15444,30.59733],[114.15711,30.59981],[114.15797,30.60023],[114.15903,30.60118],[114.16225,30.6033]]}},{"type":"Feature","properties":{"id":"OSM-way-28033125-R-30","name":"汉江右岸","category":"shoreline","river":"汉江","bank":"右岸","source":"OpenStreetMap（ODbL 1.0）"},"geometry":{"type":"LineString","coordinates":[[114.10664,30.59344],[114.10666,30.5957],[114.11138,30.59542],[114.11223,30.59518],[114.11796,30.59533],[114.12295,30.59505],[114.12548,30.59395],[114.12878,30.59177],[114.12954,30.59118],[114.13056,30.58937],[114.13125,30.58913],[114.13186,30.58821],[114.13302,30.58732],[114.13488,30.58645],[114.13601,30.58617],[114.13641,30.58645],[114.13632,30.58673],[114.13555,30.58696],[114.13613,30.58724],[114.13634,30.58829],[114.13664,30.58855],[114.1366,30.59081],[114.13702,30.59302],[114.13751,30.59413],[114.13824,30.59468],[114.14077,30.59576],[114.14353,30.5962],[114.146,30.5963],[114.14776,30.59692],[114.14769,30.59703],[114.15108,30.59811],[114.15411,30.59974],[114.16014,30.60449],[114.16099,30.60493],[114.16225,30.6033]]}},{"type":"Feature","properties":{"id":"OSM-way-28032749-L-31","name":"汉江左岸","category":"shoreline","river":"汉江","bank":"左岸","source":"OpenStreetMap（ODbL 1.0）"},"geometry":{"type":"LineString","coordinates":[[114.18425,30.58196],[114.18519,30.58355],[114.18484,30.58357],[114.18388,30.5841],[114.1835,30.58442],[114.18301,30.58542],[114.17982,30.58728],[114.17938,30.58786],[114.17652,30.58901],[114.17607,30.58934],[114.17474,30.58964],[114.17385,30.58935],[114.17336,30.58956],[114.17248,30.59074],[114.17228,30.59124],[114.17244,30.59157],[114.17254,30.59614],[114.17413,30.60082],[114.17389,30.60167],[114.17395,30.60303],[114.17295,30.60457],[114.17295,30.60509],[114.1726,30.60591],[114.17143,30.6066],[114.1698,30.607],[114.16528,30.6071],[114.16317,30.60634]]}},{"type":"Feature","properties":{"id":"OSM-way-28032749-L-32","name":"汉江左岸","category":"shoreline","river":"汉江","bank":"左岸","source":"OpenStreetMap（ODbL 1.0）"},"geometry":{"type":"LineString","coordinates":[[114.18425,30.58196],[114.18338,30.58274],[114.18268,30.58289],[114.18165,30.58362],[114.18063,30.58469],[114.1796,30.58512],[114.17818,30.58626],[114.17695,30.58697],[114.17506,30.58767],[114.17387,30.58709],[114.17312,30.58706],[114.17237,30.58744],[114.17204,30.58794],[114.1707,30.58886],[114.1696,30.59155],[114.16953,30.59281],[114.17013,30.59628],[114.17151,30.60094],[114.17163,30.60215],[114.17125,30.60366],[114.17044,30.60425],[114.16911,30.60485],[114.16699,30.60502],[114.16482,30.60451],[114.16225,30.6033],[114.16099,30.60493],[114.16317,30.60634]]}}]}