{"type":"FeatureCollection","features":[{"type":"Feature","properties":{"id":"WL01","name":"纱帽水位站","category":"waterLevel","categoryName":"水位站","district":"汉南区","unit":"m","variable":"水位","warnWusong":26.8,"baseWusong":24.6,"datum":"吴淞高程"},"geometry":{"type":"Point","coordinates":[113.968305,30.242322]}},{"type":"Feature","properties":{"id":"WL02","name":"沌口水位站","category":"waterLevel","categoryName":"水位站","district":"蔡甸区","unit":"m","variable":"水位","warnWusong":26.9,"baseWusong":24.4,"datum":"吴淞高程"},"geometry":{"type":"Point","coordinates":[114.081721,30.311434]}},{"type":"Feature","properties":{"id":"WL03","name":"金口水位站","category":"waterLevel","categoryName":"水位站","district":"江夏区","unit":"m","variable":"水位","warnWusong":26.9,"baseWusong":24.2,"datum":"吴淞高程"},"geometry":{"type":"Point","coordinates":[114.157402,30.389896]}},{"type":"Feature","properties":{"id":"WL04","name":"白沙洲水位站","category":"waterLevel","categoryName":"水位站","district":"洪山区","unit":"m","variable":"水位","warnWusong":27,"baseWusong":24.1,"datum":"吴淞高程"},"geometry":{"type":"Point","coordinates":[114.22055,30.476286]}},{"type":"Feature","properties":{"id":"WL05","name":"汉阳水位站","category":"waterLevel","categoryName":"水位站","district":"汉阳区","unit":"m","variable":"水位","warnWusong":27.1,"baseWusong":24,"datum":"吴淞高程"},"geometry":{"type":"Point","coordinates":[114.282236,30.549879]}},{"type":"Feature","properties":{"id":"WL06","name":"汉口（武汉关）水位站","category":"waterLevel","categoryName":"水位站","district":"江汉区","unit":"m","variable":"水位","warnWusong":27.3,"baseWusong":23.9,"datum":"吴淞高程"},"geometry":{"type":"Point","coordinates":[114.314054,30.595754]}},{"type":"Feature","properties":{"id":"WL07","name":"天兴洲水位站","category":"waterLevel","categoryName":"水位站","district":"青山（化工）区","unit":"m","variable":"水位","warnWusong":27,"baseWusong":23.7,"datum":"吴淞高程"},"geometry":{"type":"Point","coordinates":[114.42926,30.660053]}},{"type":"Feature","properties":{"id":"WL08","name":"阳逻水位站","category":"waterLevel","categoryName":"水位站","district":"新洲区","unit":"m","variable":"水位","warnWusong":26.8,"baseWusong":23.5,"datum":"吴淞高程"},"geometry":{"type":"Point","coordinates":[114.599088,30.712066]}},{"type":"Feature","properties":{"id":"WQ01","name":"杨泗港断面","category":"waterQuality","categoryName":"水质站","district":"汉阳区","unit":"类","variable":"水质类别","baseGrade":2},"geometry":{"type":"Point","coordinates":[114.249869,30.515137]}},{"type":"Feature","properties":{"id":"WQ02","name":"白沙洲断面","category":"waterQuality","categoryName":"水质站","district":"洪山区","unit":"类","variable":"水质类别","baseGrade":2},"geometry":{"type":"Point","coordinates":[114.210045,30.46006]}},{"type":"Feature","properties":{"id":"WQ03","name":"龙王庙断面","category":"waterQuality","categoryName":"水质站","district":"江汉区","unit":"类","variable":"水质类别","baseGrade":2},"geometry":{"type":"Point","coordinates":[114.306517,30.589103]}},{"type":"Feature","properties":{"id":"WQ04","name":"宗关（汉江）断面","category":"waterQuality","categoryName":"水质站","district":"硚口区","unit":"类","variable":"水质类别","baseGrade":3},"geometry":{"type":"Point","coordinates":[114.286981,30.596453]}},{"type":"Feature","properties":{"id":"WQ05","name":"天兴洲断面","category":"waterQuality","categoryName":"水质站","district":"青山区","unit":"类","variable":"水质类别","baseGrade":2},"geometry":{"type":"Point","coordinates":[114.418755,30.657898]}},{"type":"Feature","properties":{"id":"WQ06","name":"滠水河口断面","category":"waterQuality","categoryName":"水质站","district":"新洲区","unit":"类","variable":"水质类别","baseGrade":3},"geometry":{"type":"Point","coordinates":[114.52829,30.71361]}},{"type":"Feature","properties":{"id":"WQ07","name":"白浒山断面","category":"waterQuality","categoryName":"水质站","district":"青山区","unit":"类","variable":"水质类别","baseGrade":2},"geometry":{"type":"Point","coordinates":[114.634019,30.733944]}},{"type":"Feature","properties":{"id":"RG01","name":"汉口雨量站","category":"rain","categoryName":"雨量站","district":"江汉区","unit":"mm","variable":"小时雨量"},"geometry":{"type":"Point","coordinates":[114.283,30.612]}},{"type":"Feature","properties":{"id":"RG02","name":"汉阳雨量站","category":"rain","categoryName":"雨量站","district":"汉阳区","unit":"mm","variable":"小时雨量"},"geometry":{"type":"Point","coordinates":[114.218,30.556]}},{"type":"Feature","properties":{"id":"RG03","name":"武昌雨量站","category":"rain","categoryName":"雨量站","district":"武昌区","unit":"mm","variable":"小时雨量"},"geometry":{"type":"Point","coordinates":[114.316,30.546]}},{"type":"Feature","properties":{"id":"RG04","name":"青山雨量站","category":"rain","categoryName":"雨量站","district":"青山区","unit":"mm","variable":"小时雨量"},"geometry":{"type":"Point","coordinates":[114.404,30.635]}},{"type":"Feature","properties":{"id":"RG05","name":"洪山雨量站","category":"rain","categoryName":"雨量站","district":"洪山区","unit":"mm","variable":"小时雨量"},"geometry":{"type":"Point","coordinates":[114.343,30.506]}},{"type":"Feature","properties":{"id":"RG06","name":"蔡甸雨量站","category":"rain","categoryName":"雨量站","district":"蔡甸区","unit":"mm","variable":"小时雨量"},"geometry":{"type":"Point","coordinates":[114.029,30.582]}},{"type":"Feature","properties":{"id":"RG07","name":"江夏雨量站","category":"rain","categoryName":"雨量站","district":"江夏区","unit":"mm","variable":"小时雨量"},"geometry":{"type":"Point","coordinates":[114.315,30.376]}},{"type":"Feature","properties":{"id":"RG08","name":"黄陂雨量站","category":"rain","categoryName":"雨量站","district":"黄陂区","unit":"mm","variable":"小时雨量"},"geometry":{"type":"Point","coordinates":[114.375,30.882]}},{"type":"Feature","properties":{"id":"RG09","name":"新洲雨量站","category":"rain","categoryName":"雨量站","district":"新洲区","unit":"mm","variable":"小时雨量"},"geometry":{"type":"Point","coordinates":[114.801,30.841]}}]}