{"type":"FeatureCollection","features":[{"type":"Feature","properties":{"id":"OSM-relation-34246","name":"长江水域面","category":"water","river":"长江","area_km2":61.653,"source":"OpenStreetMap（ODbL 1.0）","note":"真实水系数据，WGS-84"},"geometry":{"type":"Polygon","coordinates":[[[114.463181,30.674737],[114.46362,30.674921],[114.464069,30.674862],[114.466393,30.67527],[114.466722,30.675473],[114.467095,30.675424],[114.467672,30.675648],[114.467778,30.675865],[114.468854,30.676241],[114.469094,30.675962],[114.469569,30.675833],[114.4699,30.676113],[114.470461,30.676033],[114.473421,30.676886],[114.475201,30.67719],[114.476065,30.677088],[114.478361,30.677442],[114.479069,30.677354],[114.482917,30.677691],[114.483266,30.677569],[114.48513,30.677647],[114.492192,30.677328],[114.496553,30.676958],[114.497508,30.676864],[114.497701,30.676704],[114.500436,30.676574],[114.50482,30.676022],[114.508878,30.675309],[114.511764,30.67455],[114.517257,30.672536],[114.520218,30.671042],[114.524054,30.668492],[114.526823,30.665976],[114.526897,30.665717],[114.529864,30.662854],[114.533168,30.660516],[114.537279,30.655112],[114.537701,30.655067],[114.537743,30.654592],[114.538972,30.65302],[114.549826,30.657532],[114.547396,30.661828],[114.546914,30.662114],[114.546632,30.662615],[114.546791,30.6631],[114.546543,30.663495],[114.546774,30.663643],[114.546782,30.663989],[114.546217,30.665126],[114.546299,30.665612],[114.546486,30.665685],[114.545048,30.669176],[114.542439,30.673185],[114.541258,30.674252],[114.539988,30.675781],[114.537609,30.678006],[114.536459,30.6786],[114.534775,30.680014],[114.534362,30.680763],[114.533393,30.681642],[114.531449,30.682873],[114.526959,30.685083],[114.519959,30.687444],[114.519418,30.688001],[114.51861,30.687977],[114.516503,30.688519],[114.510946,30.690283],[114.509577,30.690541],[114.508044,30.691265],[114.505329,30.691754],[114.499584,30.693344],[114.498899,30.693396],[114.492398,30.69507],[114.483113,30.696821],[114.474023,30.698216],[114.465279,30.699326],[114.456476,30.700133],[114.448544,30.699921],[114.439157,30.698931],[114.430316,30.697624],[114.420969,30.695689],[114.412903,30.693642],[114.40086,30.690039],[114.399687,30.689761],[114.399495,30.689941],[114.397538,30.689436],[114.394474,30.687955],[114.388259,30.685621],[114.385046,30.684225],[114.382115,30.682575],[114.380186,30.681823],[114.374585,30.679134],[114.371962,30.677709],[114.369742,30.676154],[114.369414,30.67566],[114.371243,30.676684],[114.371391,30.676639],[114.371227,30.6764],[114.368191,30.673778],[114.365144,30.670677],[114.361346,30.666104],[114.360488,30.664688],[114.358197,30.662132],[114.356871,30.661177],[114.355004,30.65853],[114.353524,30.657294],[114.351894,30.655339],[114.345644,30.649173],[114.343992,30.648115],[114.344062,30.647207],[114.343321,30.646178],[114.33904,30.64214],[114.336262,30.639103],[114.326144,30.626414],[114.342238,30.619351],[114.34264,30.6202],[114.345098,30.62235],[114.347927,30.624437],[114.348262,30.624907],[114.351416,30.627129],[114.354966,30.630086],[114.36496,30.636862],[114.36806,30.639086],[114.368686,30.639749],[114.370685,30.640986],[114.376939,30.643965],[114.378371,30.644434],[114.379663,30.64509],[114.379758,30.645001],[114.380004,30.645266],[114.381004,30.645581],[114.381478,30.645926],[114.381694,30.645787],[114.381665,30.645999],[114.3845,30.647305],[114.390394,30.650735],[114.394492,30.652413],[114.396441,30.652973],[114.397383,30.653049],[114.398956,30.653683],[114.405258,30.655414],[114.40686,30.656069],[114.408094,30.656045],[114.411531,30.657217],[114.413244,30.658044],[114.414986,30.658447],[114.415214,30.658745],[114.418478,30.659422],[114.419118,30.659884],[114.419846,30.659802],[114.421572,30.660263],[114.422732,30.660767],[114.423978,30.660861],[114.427711,30.662024],[114.428361,30.66199],[114.429223,30.662444],[114.432137,30.663234],[114.437279,30.665133],[114.440547,30.666551],[114.44418,30.667662],[114.444391,30.665574],[114.443901,30.665428],[114.443886,30.665239],[114.444065,30.665227],[114.444254,30.66183],[114.444057,30.661704],[114.444156,30.66004],[114.44433,30.65953],[114.444797,30.659362],[114.444795,30.658318],[114.4453,30.657421],[114.445045,30.65651],[114.445387,30.657386],[114.444942,30.658145],[114.44494,30.658608],[114.445277,30.659084],[114.44576,30.659155],[114.445838,30.65931],[114.445607,30.667982],[114.446979,30.668981],[114.449317,30.670271],[114.456229,30.672792],[114.457133,30.672865],[114.458588,30.67349],[114.463014,30.674667],[114.463181,30.674737]],[[114.467693,30.691091],[114.462267,30.691952],[114.461837,30.692205],[114.461144,30.692076],[114.45326,30.692559],[114.446238,30.692416],[114.431148,30.691364],[114.419778,30.689337],[114.415041,30.688276],[114.411527,30.687406],[114.405044,30.685371],[114.3999,30.684251],[114.392867,30.682211],[114.388873,30.680694],[114.386065,30.67877],[114.377632,30.673722],[114.375132,30.671969],[114.371549,30.668822],[114.370025,30.667096],[114.367688,30.662781],[114.36645,30.659605],[114.366455,30.659236],[114.366868,30.659028],[114.36973,30.659686],[114.376468,30.661767],[114.378437,30.66203],[114.381752,30.662205],[114.387664,30.662042],[114.394356,30.66281],[114.396003,30.662863],[114.396617,30.662801],[114.396813,30.662375],[114.397206,30.66231],[114.397256,30.662024],[114.397857,30.661837],[114.398246,30.661988],[114.398623,30.661742],[114.398729,30.661915],[114.398119,30.662509],[114.398038,30.662902],[114.398301,30.663097],[114.399575,30.663479],[114.400495,30.663532],[114.400855,30.663774],[114.4017,30.663742],[114.402748,30.663968],[114.403502,30.663408],[114.403294,30.663954],[114.405516,30.664363],[114.408836,30.665607],[114.409437,30.665727],[114.410052,30.665602],[114.411724,30.666603],[114.418035,30.668478],[114.418229,30.668706],[114.419115,30.66889],[114.420664,30.669597],[114.423522,30.670457],[114.423282,30.670971],[114.42351,30.671149],[114.425166,30.671339],[114.42554,30.671605],[114.426267,30.671489],[114.429101,30.672993],[114.435758,30.675992],[114.441265,30.677829],[114.442397,30.678398],[114.44495,30.678825],[114.450305,30.680142],[114.457857,30.682571],[114.461357,30.683383],[114.464833,30.684687],[114.4658,30.684756],[114.466656,30.685286],[114.470537,30.685862],[114.477164,30.687717],[114.480693,30.688482],[114.480932,30.688696],[114.476193,30.689777],[114.468736,30.690917],[114.467693,30.691091]],[[114.347103,30.624239],[114.346751,30.623871],[114.346862,30.623792],[114.347215,30.62416],[114.347103,30.624239]],[[114.342139,30.627779],[114.341785,30.627413],[114.341922,30.627315],[114.342276,30.627681],[114.342139,30.627779]],[[114.337197,30.631321],[114.336844,30.630953],[114.336956,30.630874],[114.337308,30.631242],[114.337197,30.631321]]]}},{"type":"Feature","properties":{"id":"OSM-relation-34232","name":"长江水域面","category":"water","river":"长江","area_km2":55.291,"source":"OpenStreetMap（ODbL 1.0）","note":"真实水系数据，WGS-84"},"geometry":{"type":"Polygon","coordinates":[[[114.04355,30.21397],[114.042372,30.213775],[114.040602,30.213826],[114.036353,30.215048],[114.035849,30.215345],[114.034513,30.217407],[114.032051,30.219169],[114.024568,30.228963],[114.020287,30.235433],[114.014182,30.247353],[114.008904,30.25701],[114.005824,30.261755],[114.002541,30.265869],[113.996544,30.272392],[113.988969,30.280046],[113.981588,30.2868],[113.977436,30.290033],[113.975472,30.291098],[113.972039,30.292488],[113.96984,30.292849],[113.963488,30.293414],[113.957807,30.294253],[113.956456,30.294271],[113.951579,30.293998],[113.947073,30.293498],[113.944337,30.292794],[113.941526,30.29183],[113.938522,30.290589],[113.935926,30.289171],[113.92642,30.282149],[113.925417,30.281088],[113.925119,30.280481],[113.924403,30.279985],[113.923502,30.27892],[113.92046,30.27608],[113.919795,30.275722],[113.918371,30.274125],[113.917325,30.273831],[113.916813,30.272978],[113.916091,30.272517],[113.909104,30.265264],[113.90563,30.261423],[113.903761,30.258977],[113.890398,30.264122],[113.892313,30.267041],[113.895811,30.271684],[113.899899,30.276358],[113.903289,30.279694],[113.907344,30.282825],[113.912559,30.287772],[113.920755,30.294924],[113.923609,30.29711],[113.929306,30.300844],[113.934942,30.303766],[113.935085,30.304437],[113.935863,30.304223],[113.939107,30.305795],[113.941913,30.306492],[113.949621,30.307592],[113.958768,30.307897],[113.963569,30.307175],[113.966594,30.306211],[113.967951,30.305531],[113.971251,30.303335],[113.97408,30.300955],[113.97595,30.300086],[113.976863,30.29911],[113.977876,30.298368],[113.979238,30.297562],[113.980424,30.297148],[113.984055,30.29435],[113.986604,30.29297],[113.989506,30.290913],[113.992156,30.288615],[113.995755,30.286267],[113.998236,30.28904],[113.99857,30.288816],[113.996214,30.285961],[113.999934,30.283288],[114.004883,30.279131],[114.009123,30.275232],[114.011859,30.272091],[114.013327,30.271134],[114.016897,30.266907],[114.019152,30.263078],[114.019571,30.26295],[114.021928,30.258062],[114.0249,30.252506],[114.026987,30.24784],[114.027979,30.244276],[114.029583,30.241127],[114.03229,30.237004],[114.034615,30.234136],[114.036277,30.232403],[114.039768,30.22995],[114.041562,30.229107],[114.04356,30.228467],[114.045977,30.228022],[114.047881,30.228059],[114.05103,30.228801],[114.052505,30.229362],[114.054576,30.230539],[114.056153,30.231707],[114.059565,30.234784],[114.061024,30.236444],[114.063824,30.240429],[114.071893,30.253822],[114.075057,30.260948],[114.076903,30.265795],[114.079199,30.2733],[114.081406,30.28176],[114.082305,30.289162],[114.08311,30.301589],[114.084067,30.308335],[114.08483,30.311259],[114.084756,30.311649],[114.085078,30.312252],[114.085199,30.313885],[114.08731,30.320945],[114.088297,30.322714],[114.088208,30.323489],[114.091364,30.329176],[114.094986,30.333867],[114.096656,30.338321],[114.09795,30.340844],[114.098178,30.340944],[114.100348,30.344473],[114.101483,30.345862],[114.104353,30.348933],[114.107072,30.351264],[114.109425,30.353006],[114.109797,30.353088],[114.110715,30.353746],[114.11103,30.35362],[114.111557,30.353729],[114.115225,30.355469],[114.116197,30.356151],[114.116377,30.356487],[114.119833,30.35839],[114.119929,30.358744],[114.121256,30.359249],[114.123317,30.36071],[114.124279,30.361119],[114.124497,30.36168],[114.126086,30.363211],[114.12699,30.365178],[114.128239,30.366026],[114.129289,30.367068],[114.129451,30.367575],[114.130884,30.369648],[114.132497,30.371172],[114.132638,30.371589],[114.134136,30.37337],[114.136829,30.376145],[114.137912,30.376909],[114.138147,30.377418],[114.145423,30.386136],[114.149819,30.391924],[114.150622,30.392205],[114.151149,30.39276],[114.151362,30.393196],[114.151167,30.393658],[114.152321,30.395312],[114.16656,30.39068],[114.164036,30.387962],[114.160816,30.385561],[114.157867,30.382758],[114.154407,30.380174],[114.154034,30.379726],[114.153368,30.379371],[114.152002,30.377952],[114.150574,30.376895],[114.144512,30.371354],[114.144308,30.370892],[114.141402,30.367955],[114.140878,30.367726],[114.140179,30.366722],[114.138936,30.366076],[114.138303,30.365517],[114.138351,30.364545],[114.137922,30.36351],[114.137234,30.362379],[114.135012,30.359749],[114.13512,30.359436],[114.134938,30.359196],[114.132551,30.356727],[114.13114,30.35577],[114.128409,30.353285],[114.125999,30.350479],[114.125596,30.348813],[114.124205,30.347768],[114.123618,30.347081],[114.123642,30.346136],[114.124413,30.344815],[114.124469,30.340752],[114.124304,30.340144],[114.124275,30.33772],[114.124589,30.336357],[114.124221,30.336228],[114.122878,30.333621],[114.121873,30.332153],[114.120001,30.329777],[114.11167,30.322735],[114.108757,30.320026],[114.103113,30.31407],[114.098405,30.308283],[114.098078,30.307186],[114.0974,30.306469],[114.09684,30.30388],[114.095464,30.300339],[114.095153,30.29781],[114.095397,30.295042],[114.095063,30.293954],[114.095397,30.291536],[114.095383,30.28982],[114.094842,30.288632],[114.094919,30.28623],[114.094549,30.284604],[114.094498,30.283388],[114.092395,30.277312],[114.090775,30.267],[114.08827,30.259475],[114.086736,30.25618],[114.086409,30.255082],[114.085282,30.253013],[114.081784,30.249012],[114.080851,30.247422],[114.079521,30.246704],[114.078995,30.246181],[114.07568,30.241356],[114.072531,30.237727],[114.065909,30.230634],[114.062513,30.227549],[114.061496,30.226103],[114.06048,30.224131],[114.059951,30.223647],[114.059981,30.222859],[114.059801,30.222446],[114.057772,30.220142],[114.05678,30.219453],[114.055723,30.21906],[114.054375,30.218089],[114.053468,30.217741],[114.052055,30.216269],[114.051323,30.215829],[114.049569,30.215192],[114.048549,30.21537],[114.047464,30.214548],[114.045757,30.214084],[114.045571,30.213867],[114.045315,30.214018],[114.043769,30.213996],[114.04355,30.21397]],[[114.119723,30.348077],[114.118426,30.34744],[114.114389,30.344514],[114.113022,30.343375],[114.111517,30.341748],[114.110709,30.340588],[114.110396,30.339598],[114.109891,30.335546],[114.110071,30.334785],[114.110534,30.334498],[114.11097,30.334549],[114.112168,30.335428],[114.113461,30.336672],[114.116122,30.339903],[114.118702,30.344949],[114.119749,30.34803],[114.119723,30.348077]]]}},{"type":"Feature","properties":{"id":"OSM-relation-34176","name":"长江水域面","category":"water","river":"长江","area_km2":49.147,"source":"OpenStreetMap（ODbL 1.0）","note":"真实水系数据，WGS-84"},"geometry":{"type":"Polygon","coordinates":[[[113.850803,30.200278],[113.857198,30.210649],[113.857737,30.212503],[113.861674,30.219846],[113.862849,30.221494],[113.863488,30.223318],[113.865354,30.225457],[113.86753,30.228785],[113.869552,30.230738],[113.870809,30.232257],[113.871132,30.233024],[113.87281,30.234945],[113.874026,30.235959],[113.874925,30.237466],[113.876814,30.23995],[113.883569,30.253108],[113.887807,30.260198],[113.890398,30.264122],[113.903761,30.258977],[113.901272,30.255953],[113.893923,30.246222],[113.891112,30.243025],[113.887346,30.23827],[113.88645,30.236824],[113.885854,30.234404],[113.885779,30.231735],[113.88682,30.227248],[113.889781,30.219952],[113.89042,30.216874],[113.891546,30.214218],[113.892911,30.212517],[113.893343,30.211682],[113.893772,30.210171],[113.894137,30.206805],[113.894459,30.20553],[113.895929,30.202948],[113.896379,30.202345],[113.897624,30.201298],[113.899362,30.200296],[113.901814,30.19948],[113.905408,30.199109],[113.906422,30.199207],[113.907277,30.199506],[113.90952,30.199017],[113.911405,30.199837],[113.913285,30.201064],[113.913937,30.201687],[113.914734,30.201836],[113.915598,30.202396],[113.916504,30.202362],[113.918268,30.202839],[113.919913,30.202698],[113.923118,30.204726],[113.925825,30.205506],[113.927335,30.205748],[113.928145,30.20624],[113.928909,30.206263],[113.930418,30.206678],[113.934161,30.208828],[113.934266,30.20911],[113.935046,30.20967],[113.937058,30.210241],[113.939574,30.211358],[113.942181,30.211896],[113.945265,30.212081],[113.950874,30.211423],[113.953755,30.210744],[113.957062,30.209483],[113.959787,30.208231],[113.965366,30.20509],[113.966774,30.204585],[113.970325,30.203864],[113.974845,30.203894],[113.975784,30.204239],[113.978648,30.203474],[113.982253,30.201883],[113.984179,30.200718],[113.986126,30.200139],[113.991099,30.197964],[113.992352,30.197679],[113.995911,30.196358],[113.999602,30.194797],[114.00421,30.192479],[114.004612,30.192164],[114.005132,30.191236],[114.005765,30.190717],[114.00724,30.190096],[114.009389,30.188573],[114.010607,30.188049],[114.011256,30.187344],[114.012179,30.186799],[114.012278,30.18631],[114.014609,30.18459],[114.016403,30.182941],[114.016749,30.182987],[114.017138,30.182753],[114.017916,30.182039],[114.018069,30.181578],[114.018329,30.181413],[114.018707,30.181459],[114.019841,30.180367],[114.023806,30.177831],[114.026161,30.175519],[114.026968,30.17355],[114.027309,30.171909],[114.027116,30.170049],[114.025606,30.168062],[114.024278,30.166856],[114.024149,30.166429],[114.023803,30.166271],[114.023774,30.165747],[114.025136,30.164317],[114.028433,30.161478],[114.032389,30.158769],[114.033585,30.158765],[114.033912,30.157726],[114.036782,30.155889],[114.037292,30.155768],[114.033365,30.151436],[114.02814,30.146533],[114.022277,30.149321],[114.019707,30.150851],[114.015955,30.153384],[114.014659,30.154479],[114.013793,30.154834],[114.009654,30.158419],[114.008466,30.15898],[114.007372,30.159966],[114.006294,30.160611],[114.005478,30.160669],[114.005301,30.161163],[114.003802,30.161951],[113.999392,30.164943],[113.997735,30.165562],[113.996557,30.166654],[113.994865,30.167723],[113.99406,30.168713],[113.99166,30.170629],[113.990565,30.172284],[113.98916,30.173761],[113.98773,30.176609],[113.985756,30.177409],[113.985499,30.178086],[113.985678,30.178663],[113.985343,30.179169],[113.982493,30.18139],[113.981664,30.182745],[113.979659,30.183313],[113.977699,30.184387],[113.975006,30.18691],[113.974196,30.187427],[113.972871,30.187884],[113.972248,30.188466],[113.969762,30.189681],[113.968273,30.190875],[113.963553,30.193898],[113.962829,30.19454],[113.961769,30.194767],[113.961013,30.195915],[113.957974,30.197918],[113.956662,30.198504],[113.955643,30.198743],[113.952207,30.200421],[113.947449,30.201907],[113.940006,30.20296],[113.937837,30.202919],[113.937058,30.202735],[113.934681,30.201265],[113.932434,30.200394],[113.926967,30.197524],[113.920307,30.193626],[113.916979,30.191941],[113.906786,30.187657],[113.903074,30.185422],[113.89551,30.181777],[113.892453,30.180506],[113.886005,30.178568],[113.879809,30.177107],[113.877282,30.176927],[113.871446,30.17688],[113.869783,30.177047],[113.868656,30.177418],[113.86695,30.178216],[113.865585,30.179152],[113.865377,30.179105],[113.864526,30.179533],[113.850803,30.200278]],[[113.881021,30.228658],[113.877068,30.224217],[113.86975,30.213945],[113.864794,30.208576],[113.864654,30.208233],[113.864944,30.207519],[113.864863,30.206513],[113.864515,30.205132],[113.863099,30.203606],[113.860781,30.201845],[113.860808,30.201437],[113.863421,30.197867],[113.865105,30.196244],[113.867208,30.195103],[113.870384,30.194241],[113.8743,30.193805],[113.875769,30.193814],[113.87857,30.194148],[113.882271,30.195224],[113.887904,30.195882],[113.888397,30.196012],[113.888719,30.196411],[113.888601,30.197004],[113.887507,30.198015],[113.886745,30.19923],[113.885822,30.203616],[113.885286,30.211775],[113.885297,30.218154],[113.882368,30.224643],[113.881057,30.228635],[113.881021,30.228658]],[[114.022588,30.166529],[114.02346,30.165958],[114.023701,30.166707],[114.026383,30.169362],[114.026778,30.169945],[114.026992,30.171041],[114.02685,30.17256],[114.026021,30.173198],[114.026292,30.173441],[114.026244,30.174619],[114.025281,30.176013],[114.023945,30.177302],[114.019544,30.180126],[114.010518,30.187244],[114.010094,30.187393],[114.007147,30.189688],[114.00675,30.189625],[114.00649,30.190056],[114.004604,30.191139],[114.004177,30.19211],[114.002278,30.193151],[113.997204,30.195423],[113.996874,30.195393],[113.997373,30.194999],[113.997035,30.194994],[113.996187,30.19543],[113.996053,30.195808],[113.992129,30.19725],[113.99097,30.197308],[113.990428,30.197737],[113.989106,30.198268],[113.988596,30.19821],[113.988138,30.198683],[113.986276,30.199564],[113.985807,30.199645],[113.985684,30.199492],[113.985335,30.199853],[113.9828,30.200753],[113.981459,30.202042],[113.978914,30.20302],[113.977101,30.203467],[113.975837,30.203569],[113.971369,30.203474],[113.970127,30.203247],[113.970966,30.202948],[113.970392,30.202675],[113.966715,30.203194],[113.969754,30.200667],[113.972484,30.198859],[113.973128,30.198748],[113.974936,30.197371],[113.97603,30.197139],[113.981347,30.196833],[113.98442,30.195702],[113.986566,30.194426],[113.994784,30.1887],[113.998513,30.186544],[114.002901,30.183298],[114.005749,30.180952],[114.010373,30.17656],[114.021392,30.167493],[114.022588,30.166529]]]}},{"type":"Feature","properties":{"id":"OSM-relation-48119","name":"长江水域面","category":"water","river":"长江","area_km2":44.301,"source":"OpenStreetMap（ODbL 1.0）","note":"真实水系数据，WGS-84"},"geometry":{"type":"Polygon","coordinates":[[[114.585469,30.56618],[114.581738,30.570372],[114.579644,30.57356],[114.576432,30.577799],[114.574501,30.581603],[114.573171,30.583604],[114.56786,30.59505],[114.565828,30.600478],[114.563743,30.605124],[114.560776,30.613839],[114.558421,30.619933],[114.558043,30.621548],[114.557557,30.622248],[114.55716,30.62357],[114.551368,30.634555],[114.548542,30.638595],[114.545422,30.643928],[114.544888,30.644288],[114.543347,30.646538],[114.542365,30.647417],[114.541695,30.648495],[114.541542,30.649136],[114.538972,30.65302],[114.549826,30.657532],[114.550264,30.657088],[114.550566,30.656476],[114.550491,30.656253],[114.550908,30.655885],[114.551243,30.654831],[114.55187,30.654346],[114.55186,30.653775],[114.553509,30.651715],[114.554117,30.650474],[114.554262,30.650497],[114.555093,30.649456],[114.555088,30.649034],[114.555562,30.648575],[114.556273,30.647101],[114.557087,30.64649],[114.559191,30.642088],[114.559749,30.640248],[114.55981,30.639421],[114.560712,30.638407],[114.56138,30.637033],[114.562111,30.63611],[114.562136,30.635637],[114.563134,30.634409],[114.563359,30.633353],[114.565594,30.629207],[114.566248,30.627769],[114.566277,30.627312],[114.566873,30.626617],[114.5676,30.625248],[114.567826,30.62379],[114.568643,30.62346],[114.569059,30.622716],[114.568715,30.622054],[114.569528,30.621327],[114.56992,30.619788],[114.570724,30.618097],[114.572186,30.615637],[114.572377,30.614917],[114.573314,30.613204],[114.574015,30.612411],[114.574076,30.611795],[114.575678,30.608606],[114.576277,30.608188],[114.576246,30.607795],[114.576584,30.607458],[114.577107,30.60585],[114.577648,30.605487],[114.577686,30.604631],[114.578957,30.60182],[114.580552,30.599754],[114.580669,30.599177],[114.583253,30.595084],[114.583505,30.594345],[114.584322,30.593244],[114.584777,30.592064],[114.585623,30.590978],[114.586018,30.59012],[114.590278,30.584968],[114.593056,30.58202],[114.594934,30.580401],[114.598617,30.577976],[114.603402,30.57564],[114.606017,30.57461],[114.610274,30.573346],[114.613264,30.572587],[114.614747,30.572547],[114.617853,30.571424],[114.6218,30.570798],[114.625463,30.569476],[114.632624,30.566434],[114.633343,30.566443],[114.636539,30.56864],[114.63676,30.568973],[114.637072,30.569019],[114.637667,30.56952],[114.638528,30.570531],[114.639516,30.570662],[114.639901,30.571207],[114.644348,30.572823],[114.65238,30.577586],[114.654042,30.578309],[114.65534,30.578692],[114.657751,30.579029],[114.661989,30.580657],[114.663392,30.581366],[114.666725,30.582501],[114.667282,30.58254],[114.667629,30.582828],[114.671018,30.583431],[114.671252,30.58326],[114.671372,30.5835],[114.672789,30.583645],[114.675039,30.584419],[114.679375,30.585431],[114.679767,30.586203],[114.681618,30.586563],[114.682177,30.586053],[114.683278,30.58625],[114.692949,30.588813],[114.69991,30.590239],[114.700781,30.59054],[114.701302,30.590935],[114.701978,30.591002],[114.70303,30.591533],[114.711379,30.594657],[114.720569,30.599147],[114.73525,30.607341],[114.737292,30.608739],[114.738952,30.609579],[114.739355,30.609976],[114.744765,30.61319],[114.748417,30.614831],[114.748948,30.615258],[114.749539,30.615364],[114.750478,30.615948],[114.751242,30.616197],[114.751412,30.616496],[114.752165,30.616858],[114.75277,30.616956],[114.75303,30.617294],[114.754649,30.618109],[114.758203,30.619674],[114.758506,30.619732],[114.758699,30.619544],[114.761716,30.620796],[114.767435,30.622774],[114.768376,30.616327],[114.768923,30.609891],[114.767459,30.609433],[114.766751,30.609456],[114.765938,30.609093],[114.760232,30.607626],[114.758376,30.606962],[114.751325,30.602768],[114.74902,30.601634],[114.748662,30.601201],[114.748469,30.600145],[114.747801,30.598944],[114.746184,30.596902],[114.743679,30.594241],[114.743164,30.593362],[114.741916,30.592142],[114.739203,30.589978],[114.73796,30.589223],[114.73737,30.588597],[114.734382,30.586469],[114.73106,30.584459],[114.722055,30.580261],[114.718847,30.578431],[114.715362,30.577147],[114.711025,30.57512],[114.708037,30.574104],[114.705827,30.573494],[114.70311,30.573065],[114.699771,30.572058],[114.694532,30.571097],[114.687999,30.570213],[114.676037,30.569076],[114.67488,30.568797],[114.673284,30.568668],[114.672691,30.568774],[114.671339,30.568509],[114.670548,30.568561],[114.669953,30.568319],[114.669269,30.568573],[114.668838,30.568232],[114.667342,30.56791],[114.664551,30.567527],[114.663809,30.567709],[114.662567,30.567318],[114.656213,30.566372],[114.651805,30.566116],[114.64962,30.565131],[114.648093,30.564657],[114.647394,30.563859],[114.646452,30.563497],[114.646134,30.563151],[114.644681,30.562331],[114.641442,30.561461],[114.640179,30.560802],[114.63959,30.560136],[114.638659,30.559519],[114.638559,30.558647],[114.638265,30.559148],[114.6383,30.558005],[114.637844,30.557706],[114.636786,30.55636],[114.636137,30.555714],[114.635701,30.555579],[114.634449,30.554666],[114.631447,30.553334],[114.629761,30.552365],[114.627158,30.551574],[114.623269,30.550936],[114.621788,30.55092],[114.616015,30.551574],[114.615422,30.5515],[114.609429,30.552717],[114.604861,30.554551],[114.600121,30.556728],[114.598791,30.557191],[114.596573,30.557641],[114.592342,30.560039],[114.590532,30.561293],[114.588062,30.563319],[114.586077,30.565439],[114.585469,30.56618]],[[114.620585,30.570006],[114.621669,30.569569],[114.621968,30.569614],[114.620623,30.570037],[114.620585,30.570006]]]}},{"type":"Feature","properties":{"id":"OSM-relation-34179","name":"长江水域面","category":"water","river":"长江","area_km2":34.612,"source":"OpenStreetMap（ODbL 1.0）","note":"真实水系数据，WGS-84"},"geometry":{"type":"Polygon","coordinates":[[[114.19463,30.456114],[114.196658,30.45698],[114.198139,30.458302],[114.201499,30.460089],[114.202355,30.460715],[114.208671,30.466196],[114.211298,30.468742],[114.211615,30.469437],[114.212362,30.469711],[114.213029,30.470376],[114.215756,30.474235],[114.216866,30.475106],[114.217687,30.476357],[114.222397,30.4819],[114.227284,30.487422],[114.228346,30.488306],[114.230237,30.490834],[114.232726,30.493475],[114.235751,30.497661],[114.236123,30.4978],[114.238084,30.500528],[114.239481,30.501918],[114.24092,30.503891],[114.24145,30.504173],[114.241471,30.504405],[114.248767,30.513201],[114.250032,30.514392],[114.251682,30.516452],[114.252368,30.516993],[114.25415,30.519018],[114.255834,30.520482],[114.256946,30.521821],[114.257285,30.521596],[114.259245,30.523749],[114.266747,30.534095],[114.267816,30.536112],[114.26861,30.536912],[114.269239,30.538153],[114.269386,30.538064],[114.269672,30.538419],[114.269456,30.538547],[114.270957,30.540828],[114.273459,30.54549],[114.273867,30.545893],[114.27496,30.548587],[114.287188,30.545659],[114.286675,30.545695],[114.285501,30.542622],[114.285421,30.541907],[114.28445,30.541265],[114.284547,30.540268],[114.284244,30.539633],[114.284104,30.538179],[114.284227,30.537753],[114.283948,30.536799],[114.283342,30.53614],[114.283528,30.535573],[114.284467,30.534418],[114.284549,30.53391],[114.285999,30.532446],[114.285939,30.532329],[114.284938,30.532715],[114.284814,30.532241],[114.287594,30.530811],[114.286995,30.530787],[114.284979,30.531695],[114.284473,30.529891],[114.284314,30.529982],[114.284039,30.529624],[114.284285,30.529491],[114.283814,30.527541],[114.283087,30.525705],[114.281358,30.522104],[114.279428,30.519385],[114.27549,30.514936],[114.275166,30.514336],[114.271789,30.510715],[114.268126,30.507292],[114.266249,30.505852],[114.266402,30.50563],[114.265456,30.504822],[114.26453,30.504382],[114.264325,30.504081],[114.264366,30.503738],[114.263644,30.502914],[114.26051,30.500139],[114.260568,30.500003],[114.259855,30.499543],[114.259932,30.499435],[114.258148,30.497314],[114.256549,30.496124],[114.25454,30.493916],[114.251308,30.488532],[114.249557,30.48644],[114.249165,30.485173],[114.248092,30.483044],[114.245866,30.480104],[114.245165,30.479585],[114.244632,30.478647],[114.244501,30.47795],[114.243624,30.476591],[114.242626,30.475379],[114.2421,30.475106],[114.240979,30.473995],[114.240593,30.473014],[114.239496,30.471597],[114.235529,30.468289],[114.233898,30.465959],[114.227257,30.460308],[114.221345,30.455656],[114.218679,30.454427],[114.211716,30.450056],[114.204788,30.446147],[114.204278,30.44604],[114.201634,30.444628],[114.201345,30.444281],[114.197988,30.442051],[114.196733,30.440886],[114.194062,30.436723],[114.192742,30.435058],[114.189845,30.429642],[114.189733,30.429096],[114.190022,30.4275],[114.189856,30.424475],[114.189604,30.423342],[114.187399,30.41885],[114.182035,30.409125],[114.17943,30.405571],[114.178304,30.403685],[114.176643,30.40195],[114.176178,30.401141],[114.175875,30.401021],[114.175367,30.399972],[114.168782,30.392595],[114.16656,30.39068],[114.152321,30.395312],[114.15758,30.402389],[114.163238,30.410962],[114.164713,30.412928],[114.166612,30.415017],[114.168001,30.417939],[114.169847,30.420789],[114.170115,30.42188],[114.170845,30.423397],[114.171911,30.4245],[114.172135,30.425224],[114.173296,30.427021],[114.177631,30.43546],[114.180694,30.440534],[114.183505,30.44441],[114.186144,30.44761],[114.192447,30.454357],[114.194287,30.455934],[114.19463,30.456114]],[[114.18819,30.424214],[114.18822,30.423505],[114.188746,30.422826],[114.189003,30.42328],[114.189345,30.423342],[114.189145,30.42382],[114.189163,30.42454],[114.188886,30.424694],[114.188617,30.424368],[114.188252,30.424263],[114.18819,30.424214]],[[114.24344,30.488054],[114.243369,30.486803],[114.241577,30.485211],[114.240269,30.482748],[114.239948,30.479448],[114.240201,30.479069],[114.240472,30.47902],[114.24129,30.479498],[114.243704,30.482538],[114.245861,30.485675],[114.251845,30.495768],[114.251606,30.495872],[114.250908,30.495387],[114.245743,30.491081],[114.244246,30.4895],[114.243476,30.488209],[114.24344,30.488054]],[[114.276909,30.534321],[114.277148,30.534183],[114.27678,30.533709],[114.276541,30.533846],[114.276909,30.534321]],[[114.23375,30.491882],[114.233821,30.491835],[114.233548,30.491528],[114.233476,30.491575],[114.23375,30.491882]],[[114.238884,30.488527],[114.238956,30.488479],[114.238682,30.488172],[114.238611,30.48822],[114.238884,30.488527]],[[114.263538,30.50559],[114.263677,30.505493],[114.263282,30.505071],[114.263142,30.505168],[114.263538,30.50559]]]}},{"type":"Feature","properties":{"id":"OSM-relation-49213","name":"长江水域面","category":"water","river":"长江","area_km2":14.295,"source":"OpenStreetMap（ODbL 1.0）","note":"真实水系数据，WGS-84"},"geometry":{"type":"Polygon","coordinates":[[[114.82,30.582509],[114.819553,30.583544],[114.815497,30.590184],[114.810476,30.596936],[114.803283,30.602647],[114.799281,30.605625],[114.797709,30.606489],[114.792583,30.608479],[114.787181,30.60961],[114.783382,30.609987],[114.783044,30.61036],[114.773104,30.610382],[114.768923,30.609891],[114.768376,30.616327],[114.767435,30.622774],[114.771799,30.624447],[114.774111,30.625014],[114.774411,30.625277],[114.778216,30.626237],[114.782555,30.627075],[114.782663,30.627212],[114.782439,30.627814],[114.782585,30.627956],[114.786122,30.628837],[114.792438,30.629887],[114.792637,30.630025],[114.792685,30.630739],[114.795558,30.631505],[114.796533,30.631696],[114.796621,30.631191],[114.796895,30.63105],[114.796708,30.631775],[114.798136,30.63193],[114.800499,30.631875],[114.806196,30.633063],[114.80877,30.633375],[114.811455,30.633308],[114.814779,30.634171],[114.81748,30.634455],[114.818851,30.63431],[114.82,30.63466],[114.82,30.582509]]]}},{"type":"Feature","properties":{"id":"OSM-relation-14069780","name":"长江水域面","category":"water","river":"长江","area_km2":12.719,"source":"OpenStreetMap（ODbL 1.0）","note":"真实水系数据，WGS-84"},"geometry":{"type":"Polygon","coordinates":[[[114.283325,30.562472],[114.285021,30.564746],[114.285583,30.566219],[114.284424,30.566602],[114.285845,30.568208],[114.286381,30.568297],[114.287492,30.56912],[114.289019,30.570861],[114.291138,30.57413],[114.291717,30.575364],[114.29364,30.577821],[114.296223,30.582367],[114.2973,30.58374],[114.298204,30.58553],[114.300744,30.589637],[114.302015,30.591062],[114.306124,30.597642],[114.30793,30.599932],[114.31062,30.604226],[114.312874,30.606968],[114.313341,30.60729],[114.314229,30.608905],[114.314848,30.609498],[114.315995,30.61121],[114.316513,30.61268],[114.317673,30.614099],[114.318163,30.614269],[114.317918,30.614641],[114.320726,30.619129],[114.326144,30.626414],[114.342238,30.619351],[114.331613,30.609165],[114.319494,30.59489],[114.318845,30.593872],[114.318625,30.593176],[114.318806,30.593057],[114.318607,30.593048],[114.318269,30.591803],[114.316298,30.588661],[114.315249,30.587134],[114.314115,30.586008],[114.309841,30.580074],[114.30863,30.578797],[114.304843,30.571809],[114.304642,30.571808],[114.304182,30.570866],[114.301156,30.566393],[114.298558,30.563543],[114.295369,30.56054],[114.293965,30.558803],[114.291045,30.55449],[114.289682,30.552964],[114.287641,30.549113],[114.287684,30.547961],[114.287188,30.545659],[114.275674,30.548322],[114.277307,30.552551],[114.279978,30.557402],[114.282757,30.561734],[114.283325,30.562472]],[[114.318584,30.606289],[114.318307,30.605975],[114.318394,30.605918],[114.318671,30.606232],[114.318584,30.606289]],[[114.321942,30.60412],[114.321665,30.603807],[114.321752,30.603749],[114.32203,30.604063],[114.321942,30.60412]]]}},{"type":"Feature","properties":{"id":"OSM-way-1198264901","name":"长江水域面","category":"water","river":"长江","area_km2":10.491,"source":"OpenStreetMap（ODbL 1.0）","note":"真实水系数据，WGS-84"},"geometry":{"type":"Polygon","coordinates":[[[114.538972,30.65302],[114.549763,30.657604],[114.585933,30.58998],[114.572643,30.584899],[114.538972,30.65302]]]}},{"type":"Feature","properties":{"id":"OSM-relation-67345","name":"长江水域面","category":"water","river":"长江","area_km2":6.849,"source":"OpenStreetMap（ODbL 1.0）","note":"真实水系数据，WGS-84"},"geometry":{"type":"Polygon","coordinates":[[[114.080931,30.12],[114.080856,30.120916],[114.080417,30.122009],[114.079778,30.123341],[114.07921,30.123925],[114.0745,30.127572],[114.070058,30.130295],[114.068438,30.131066],[114.066367,30.131775],[114.062682,30.133685],[114.061413,30.133965],[114.042348,30.14066],[114.02814,30.146533],[114.033365,30.151436],[114.037292,30.155768],[114.037842,30.155984],[114.038313,30.156424],[114.039252,30.156747],[114.045237,30.161955],[114.046753,30.162941],[114.047463,30.163632],[114.047277,30.163082],[114.045269,30.161786],[114.040588,30.157564],[114.037528,30.155451],[114.044478,30.151828],[114.046664,30.150499],[114.056593,30.146498],[114.058924,30.145192],[114.063862,30.14303],[114.064557,30.142441],[114.065571,30.142158],[114.066032,30.141801],[114.067022,30.141604],[114.067719,30.14091],[114.069937,30.139934],[114.070181,30.139607],[114.070449,30.139567],[114.070675,30.139145],[114.072547,30.138329],[114.07395,30.137266],[114.074524,30.137173],[114.074923,30.136768],[114.0759,30.136508],[114.076385,30.135983],[114.077775,30.135304],[114.08036,30.13339],[114.080704,30.133318],[114.080636,30.133766],[114.079322,30.134891],[114.078493,30.135185],[114.077021,30.136206],[114.075956,30.136675],[114.075825,30.137679],[114.076645,30.138164],[114.077219,30.137939],[114.077646,30.137378],[114.077978,30.137394],[114.078437,30.137809],[114.079934,30.137099],[114.080304,30.136635],[114.081543,30.136408],[114.081645,30.136072],[114.080765,30.135604],[114.080985,30.135241],[114.081795,30.135087],[114.082147,30.134675],[114.082192,30.134408],[114.081905,30.134135],[114.081197,30.13442],[114.08135,30.13381],[114.081923,30.133006],[114.082177,30.133061],[114.082063,30.133738],[114.082525,30.134113],[114.082848,30.133878],[114.082896,30.133496],[114.082463,30.133054],[114.083024,30.132908],[114.083152,30.132606],[114.082678,30.131583],[114.082884,30.131428],[114.08341,30.13146],[114.083547,30.130924],[114.084051,30.130718],[114.084553,30.1302],[114.086215,30.129354],[114.089064,30.126593],[114.090823,30.124537],[114.091827,30.123002],[114.09305,30.12],[114.080931,30.12]]]}},{"type":"Feature","properties":{"id":"OSM-way-87037982","name":"汉江水域面","category":"water","river":"汉江","area_km2":7.916,"source":"OpenStreetMap（ODbL 1.0）","note":"真实水系数据，WGS-84"},"geometry":{"type":"Polygon","coordinates":[[[113.861325,30.642442],[113.860712,30.644965],[113.859811,30.64722],[113.858614,30.648943],[113.856914,30.650608],[113.855642,30.651435],[113.853387,30.652234],[113.851522,30.652459],[113.848702,30.651931],[113.846197,30.650884],[113.844559,30.649746],[113.842531,30.647937],[113.840966,30.646004],[113.840453,30.647651],[113.838736,30.646932],[113.839431,30.648273],[113.840528,30.649633],[113.841487,30.650476],[113.840544,30.651446],[113.840648,30.651735],[113.841349,30.651719],[113.841756,30.651483],[113.842438,30.651395],[113.844436,30.652881],[113.846977,30.653988],[113.848465,30.654379],[113.851554,30.654545],[113.853314,30.654342],[113.855203,30.653889],[113.857363,30.653077],[113.859779,30.651271],[113.861699,30.648864],[113.86353,30.64572],[113.863898,30.640247],[113.863605,30.638138],[113.862348,30.633038],[113.861566,30.626936],[113.862373,30.623845],[113.864572,30.622457],[113.867431,30.62252],[113.867431,30.623782],[113.868311,30.625107],[113.87117,30.626242],[113.874542,30.626116],[113.8807,30.624728],[113.886491,30.622709],[113.88847,30.623277],[113.88913,30.624602],[113.890376,30.631982],[113.892355,30.634568],[113.895801,30.636271],[113.89932,30.63665],[113.902545,30.635893],[113.90599,30.634253],[113.910389,30.631036],[113.914421,30.62927],[113.919112,30.628197],[113.922998,30.628197],[113.927836,30.631162],[113.931794,30.634694],[113.932528,30.636587],[113.932088,30.637722],[113.929888,30.638668],[113.925637,30.639425],[113.922045,30.639299],[113.919186,30.641191],[113.9175,30.64384],[113.91728,30.647498],[113.918599,30.650525],[113.920359,30.652606],[113.924017,30.655348],[113.92392,30.6558],[113.924307,30.656022],[113.925219,30.656096],[113.92553,30.656492],[113.925369,30.656705],[113.925734,30.656954],[113.926721,30.657194],[113.93058,30.66032],[113.934714,30.665223],[113.946382,30.680855],[113.949585,30.68465],[113.951129,30.684011],[113.952146,30.68301],[113.942571,30.670074],[113.938685,30.665849],[113.936633,30.662255],[113.927249,30.6533],[113.923291,30.650904],[113.921385,30.648885],[113.921092,30.646994],[113.922411,30.645101],[113.925123,30.642957],[113.927689,30.642011],[113.935166,30.639867],[113.936926,30.638416],[113.937512,30.63583],[113.936779,30.633559],[113.93436,30.630973],[113.9337,30.629522],[113.930402,30.628954],[113.925197,30.626179],[113.921898,30.624917],[113.917206,30.625107],[113.913028,30.626116],[113.906943,30.628513],[113.901665,30.632802],[113.900272,30.633559],[113.898073,30.633118],[113.896461,30.631982],[113.895434,30.630279],[113.892795,30.619744],[113.891622,30.618609],[113.888323,30.618041],[113.884072,30.619051],[113.882312,30.620312],[113.879233,30.622079],[113.877181,30.622709],[113.874688,30.622457],[113.871463,30.621574],[113.866845,30.619303],[113.864858,30.61882],[113.862755,30.619097],[113.861446,30.619651],[113.860519,30.619725],[113.858391,30.620361],[113.857434,30.622199],[113.857418,30.625518],[113.85815,30.629254],[113.860889,30.638039],[113.861325,30.642442]]]}},{"type":"Feature","properties":{"id":"OSM-way-87037908","name":"汉江水域面","category":"water","river":"汉江","area_km2":2.663,"source":"OpenStreetMap（ODbL 1.0）","note":"真实水系数据，WGS-84"},"geometry":{"type":"Polygon","coordinates":[[[113.84625,30.57775],[113.8485,30.57875],[113.85,30.58025],[113.8505,30.5805],[113.85375,30.5855],[113.85475,30.5875],[113.85475,30.588],[113.86325,30.5995],[113.864172,30.601769],[113.86404,30.603983],[113.863405,30.605614],[113.862372,30.607167],[113.861422,30.607982],[113.8595,30.60925],[113.852573,30.612783],[113.848065,30.615834],[113.846128,30.617497],[113.843442,30.621828],[113.842531,30.624341],[113.841293,30.626907],[113.838029,30.632731],[113.836979,30.636066],[113.836827,30.636244],[113.835293,30.636138],[113.83475,30.63625],[113.834796,30.636838],[113.835585,30.636679],[113.836456,30.636926],[113.836636,30.637324],[113.836421,30.637935],[113.836282,30.641277],[113.837,30.6435],[113.838736,30.646932],[113.840453,30.647651],[113.840966,30.646004],[113.840278,30.644992],[113.83925,30.64275],[113.839088,30.641143],[113.839258,30.63913],[113.84004,30.636108],[113.840443,30.634908],[113.84425,30.628],[113.846,30.623],[113.84675,30.6215],[113.85275,30.61575],[113.858818,30.61232],[113.859891,30.611314],[113.861275,30.611055],[113.8635,30.6095],[113.865513,30.607001],[113.866296,30.60523],[113.866785,30.602999],[113.86679,30.602028],[113.866753,30.600963],[113.865975,30.598408],[113.864902,30.596318],[113.85825,30.5875],[113.855861,30.583962],[113.85539,30.583721],[113.853894,30.580886],[113.851721,30.578241],[113.84913,30.57645],[113.846996,30.575426],[113.84625,30.57525],[113.84625,30.57775]]]}},{"type":"Feature","properties":{"id":"OSM-way-28117018","name":"汉江水域面","category":"water","river":"汉江","area_km2":2.43,"source":"OpenStreetMap（ODbL 1.0）","note":"真实水系数据，WGS-84"},"geometry":{"type":"Polygon","coordinates":[[[114.02469,30.596915],[114.032333,30.595644],[114.03511,30.594852],[114.037272,30.593655],[114.039527,30.592117],[114.04176,30.590027],[114.042598,30.58989],[114.043324,30.589221],[114.045289,30.588033],[114.045983,30.587782],[114.047512,30.58764],[114.050582,30.587701],[114.05174,30.587989],[114.051886,30.58822],[114.05234,30.588196],[114.054065,30.588926],[114.054683,30.58945],[114.055376,30.590752],[114.056401,30.591785],[114.057843,30.593846],[114.05938,30.595324],[114.061362,30.596831],[114.063594,30.598087],[114.06513,30.598648],[114.070091,30.599742],[114.072254,30.599823],[114.073911,30.599557],[114.074984,30.598973],[114.076194,30.598678],[114.078314,30.597518],[114.080374,30.59706],[114.08464,30.596794],[114.091026,30.597267],[114.092837,30.597259],[114.096347,30.596971],[114.100596,30.596218],[114.106664,30.595705],[114.106638,30.593444],[114.104338,30.593602],[114.104226,30.593654],[114.104484,30.593787],[114.104278,30.594001],[114.103814,30.593757],[114.100802,30.593979],[114.093,30.595036],[114.088442,30.59488],[114.083687,30.594319],[114.081473,30.594422],[114.079275,30.595087],[114.07846,30.595634],[114.078374,30.595878],[114.075954,30.596846],[114.07404,30.597333],[114.072186,30.597311],[114.070984,30.597104],[114.068529,30.596173],[114.062238,30.593292],[114.060762,30.59225],[114.059594,30.591992],[114.059002,30.591526],[114.058436,30.590093],[114.058127,30.589923],[114.057002,30.589901],[114.057174,30.588837],[114.056213,30.587418],[114.05459,30.586517],[114.052221,30.58597],[114.048117,30.58567],[114.045051,30.585732],[114.044185,30.585965],[114.040978,30.587506],[114.040506,30.588102],[114.03544,30.591163],[114.034041,30.5917],[114.030163,30.592553],[114.024228,30.59434],[114.02469,30.596915]]]}},{"type":"Feature","properties":{"id":"OSM-way-28033125","name":"汉江水域面","category":"water","river":"汉江","area_km2":1.469,"source":"OpenStreetMap（ODbL 1.0）","note":"真实水系数据，WGS-84"},"geometry":{"type":"Polygon","coordinates":[[[114.106664,30.595705],[114.111385,30.595416],[114.112226,30.59518],[114.117959,30.595328],[114.122946,30.595047],[114.125478,30.593954],[114.128783,30.591774],[114.129538,30.591183],[114.130559,30.589365],[114.131246,30.589129],[114.131855,30.588213],[114.133023,30.587319],[114.134877,30.586447],[114.13601,30.586173],[114.136413,30.586454],[114.136319,30.586728],[114.135555,30.586964],[114.13613,30.587245],[114.136336,30.588294],[114.136636,30.588553],[114.136602,30.590813],[114.137022,30.593023],[114.137512,30.594131],[114.138241,30.594678],[114.140773,30.595764],[114.143528,30.5962],[114.146,30.596303],[114.14776,30.596924],[114.147691,30.597027],[114.151082,30.598106],[114.154111,30.599738],[114.160137,30.604489],[114.160985,30.604934],[114.162247,30.603302],[114.159029,30.601179],[114.157965,30.600233],[114.157107,30.599812],[114.154437,30.59733],[114.152395,30.596074],[114.149245,30.595224],[114.145108,30.594781],[114.144902,30.594559],[114.144524,30.594604],[114.144395,30.594685],[114.144576,30.594848],[114.144309,30.594877],[114.141546,30.594611],[114.14079,30.594057],[114.140172,30.594094],[114.138344,30.591235],[114.138799,30.590518],[114.139117,30.590621],[114.138919,30.590156],[114.138507,30.590141],[114.138198,30.589824],[114.138524,30.588944],[114.138284,30.587511],[114.138387,30.586624],[114.137743,30.584651],[114.13722,30.584215],[114.136876,30.584149],[114.136954,30.5844],[114.133701,30.584311],[114.132671,30.584843],[114.132508,30.584799],[114.132782,30.584511],[114.13383,30.583868],[114.132422,30.584526],[114.131006,30.585944],[114.130139,30.587429],[114.129478,30.587703],[114.128585,30.588996],[114.128379,30.588944],[114.127976,30.589846],[114.128714,30.589328],[114.128448,30.589727],[114.126997,30.590828],[114.123178,30.592675],[114.118243,30.593289],[114.111239,30.59289],[114.110338,30.593126],[114.10996,30.593008],[114.108913,30.593089],[114.106638,30.593444],[114.106664,30.595705]]]}},{"type":"Feature","properties":{"id":"OSM-way-28032749","name":"汉江水域面","category":"water","river":"汉江","area_km2":0.995,"source":"OpenStreetMap（ODbL 1.0）","note":"真实水系数据，WGS-84"},"geometry":{"type":"Polygon","coordinates":[[[114.160985,30.604934],[114.163174,30.606338],[114.165277,30.607099],[114.1698,30.607003],[114.171431,30.606596],[114.172598,30.605909],[114.17295,30.605089],[114.17295,30.604565],[114.173946,30.603028],[114.173894,30.601669],[114.174126,30.60082],[114.172538,30.596143],[114.172443,30.59157],[114.17228,30.591237],[114.172478,30.590742],[114.173362,30.58956],[114.173851,30.589353],[114.174744,30.589641],[114.176074,30.589338],[114.17652,30.589013],[114.179379,30.587861],[114.179816,30.587277],[114.183009,30.585422],[114.183498,30.584425],[114.183876,30.5841],[114.184837,30.583575],[114.18519,30.583551],[114.184246,30.581962],[114.183378,30.58274],[114.182683,30.582888],[114.181653,30.583619],[114.180632,30.584691],[114.179602,30.585119],[114.178177,30.586257],[114.17695,30.586974],[114.175061,30.587668],[114.173868,30.587092],[114.173121,30.587055],[114.172375,30.587439],[114.17204,30.587942],[114.170701,30.588858],[114.169602,30.591555],[114.169525,30.592811],[114.170134,30.596285],[114.171508,30.600936],[114.171631,30.602153],[114.171251,30.603657],[114.170442,30.604251],[114.16911,30.604854],[114.16699,30.605021],[114.164822,30.604506],[114.162247,30.603302],[114.160985,30.604934]]]}},{"type":"Feature","properties":{"id":"OSM-way-27469201","name":"汉江水域面","category":"water","river":"汉江","area_km2":0.872,"source":"OpenStreetMap（ODbL 1.0）","note":"真实水系数据，WGS-84"},"geometry":{"type":"Polygon","coordinates":[[[113.99852,30.61362],[113.999859,30.615282],[114.003516,30.612859],[114.007464,30.611197],[114.007756,30.611249],[114.010966,30.610259],[114.013764,30.609993],[114.015455,30.61051],[114.015687,30.61085],[114.016802,30.611589],[114.017437,30.612424],[114.018536,30.61283],[114.018665,30.613177],[114.020665,30.614839],[114.025325,30.618274],[114.025282,30.618399],[114.024295,30.617927],[114.02324,30.617262],[114.022836,30.617365],[114.023549,30.617927],[114.024922,30.618532],[114.028501,30.619323],[114.031505,30.619153],[114.033969,30.61868],[114.03693,30.617218],[114.035968,30.616169],[114.034801,30.616811],[114.03305,30.617439],[114.031694,30.617602],[114.029394,30.617454],[114.027016,30.616715],[114.025197,30.615748],[114.023428,30.614433],[114.02221,30.613975],[114.022081,30.613635],[114.020321,30.611929],[114.014382,30.607792],[114.012837,30.607822],[114.01052,30.608161],[114.00585,30.609646],[114.003387,30.610518],[113.999576,30.612823],[113.99852,30.61362]]]}}]}